{"type":"FeatureCollection","features":[{"type":"Feature","properties":{},"geometry":{"type":"MultiPolygon","coordinates":[[[[139.50041,35.5702],[139.50083,35.56853],[139.49996,35.56835],[139.49891,35.56789],[139.49827,35.56793],[139.49789,35.5678],[139.49749,35.56732],[139.49738,35.56639],[139.49627,35.56464],[139.4951,35.56491],[139.49467,35.56486],[139.4944,35.56458],[139.49432,35.5641],[139.49319,35.56299],[139.493,35.56263],[139.49113,35.56145],[139.48964,35.56164],[139.48912,35.56192],[139.48889,35.56227],[139.48908,35.5632],[139.48769,35.5658],[139.48736,35.56706],[139.48678,35.56734],[139.48613,35.56743],[139.48604,35.56758],[139.48636,35.56904],[139.48546,35.56955],[139.48489,35.57011],[139.484,35.57029],[139.48357,35.57087],[139.48287,35.57138],[139.48375,35.57196],[139.48447,35.57369],[139.48478,35.57565],[139.48568,35.57781],[139.48606,35.57836],[139.4863,35.57854],[139.48748,35.57833],[139.48838,35.57847],[139.48987,35.58358],[139.48989,35.58412],[139.4896,35.58439],[139.48828,35.58394],[139.48684,35.5847],[139.48583,35.58475],[139.48498,35.58461],[139.4837,35.58323],[139.48281,35.58262],[139.4822,35.58172],[139.48188,35.5815],[139.48159,35.58145],[139.48051,35.58168],[139.47782,35.58064],[139.47719,35.58119],[139.47751,35.58153],[139.478,35.58171],[139.47783,35.58222],[139.47701,35.58181],[139.47655,35.582],[139.47639,35.58194],[139.47601,35.58073],[139.47568,35.58043],[139.47524,35.58035],[139.47523,35.57974],[139.47324,35.57667],[139.47368,35.57532],[139.47325,35.57385],[139.47232,35.57257],[139.47173,35.57105],[139.47046,35.57048],[139.46967,35.5695],[139.46917,35.56674],[139.46924,35.56619],[139.46965,35.5653],[139.46902,35.56488],[139.46827,35.56314],[139.46838,35.5629],[139.46948,35.56244],[139.47024,35.5605],[139.4706,35.56037],[139.4718,35.56041],[139.47431,35.55967],[139.47506,35.55966],[139.47535,35.56],[139.47536,35.56133],[139.47649,35.56255],[139.47685,35.56228],[139.47719,35.56158],[139.47753,35.56144],[139.47789,35.56044],[139.47911,35.55955],[139.47973,35.55939],[139.48035,35.55781],[139.48192,35.55584],[139.48221,35.55334],[139.48194,35.5524],[139.48196,35.55045],[139.48258,35.54854],[139.4823,35.54722],[139.48166,35.54663],[139.48162,35.54626],[139.48088,35.54596],[139.48049,35.54499],[139.48033,35.54315],[139.48117,35.54174],[139.48164,35.53995],[139.48261,35.53951],[139.48398,35.53918],[139.48492,35.53818],[139.48504,35.53699],[139.48489,35.53666],[139.48456,35.53645],[139.48453,35.5361],[139.48682,35.53553],[139.48665,35.53473],[139.48631,35.53427],[139.48656,35.53398],[139.48579,35.53113],[139.48663,35.52963],[139.48679,35.52888],[139.4878,35.52788],[139.48761,35.5276],[139.48696,35.52721],[139.48653,35.5265],[139.48672,35.52583],[139.48717,35.52562],[139.48757,35.52492],[139.48747,35.52412],[139.48661,35.52337],[139.48569,35.52221],[139.48584,35.5213],[139.48641,35.52053],[139.48634,35.51984],[139.48545,35.51975],[139.48454,35.51996],[139.48328,35.51915],[139.48254,35.51765],[139.48035,35.51473],[139.47939,35.51369],[139.47751,35.51216],[139.47697,35.5114],[139.47807,35.50971],[139.48076,35.50629],[139.48106,35.50536],[139.48494,35.50397],[139.48035,35.50297],[139.47956,35.5025],[139.47638,35.50135],[139.47471,35.5014],[139.47381,35.50125],[139.47273,35.50147],[139.47143,35.50206],[139.47058,35.50214],[139.46932,35.5019],[139.46842,35.50207],[139.46772,35.50237],[139.46828,35.50526],[139.46809,35.50678],[139.46766,35.50758],[139.46603,35.50925],[139.46485,35.5109],[139.4641,35.51306],[139.46403,35.51613],[139.46344,35.51762],[139.4626,35.51845],[139.46112,35.51928],[139.45577,35.52047],[139.45515,35.52099],[139.45477,35.52169],[139.45482,35.52274],[139.45697,35.52534],[139.45759,35.52706],[139.458,35.52703],[139.45842,35.52673],[139.4585,35.52725],[139.45825,35.5274],[139.45832,35.52799],[139.45782,35.52804],[139.4579,35.52831],[139.45775,35.52862],[139.45731,35.52839],[139.45548,35.52956],[139.45492,35.53015],[139.45415,35.53144],[139.45142,35.5329],[139.45092,35.53325],[139.451,35.53348],[139.45058,35.53351],[139.45068,35.53375],[139.45053,35.53398],[139.4502,35.53415],[139.45001,35.53402],[139.44964,35.53432],[139.44984,35.53446],[139.44985,35.53475],[139.44923,35.53464],[139.44896,35.53489],[139.44826,35.536],[139.44831,35.53717],[139.44815,35.5378],[139.44767,35.53843],[139.44633,35.53956],[139.4451,35.54113],[139.44525,35.5412],[139.4451,35.54207],[139.44435,35.54242],[139.44377,35.54191],[139.44044,35.5431],[139.43965,35.54367],[139.43905,35.54443],[139.43878,35.54427],[139.43899,35.54451],[139.43815,35.54558],[139.43769,35.54549],[139.43789,35.54578],[139.43672,35.54645],[139.43651,35.54633],[139.43656,35.54655],[139.43601,35.54683],[139.43521,35.54623],[139.43499,35.5465],[139.4347,35.54654],[139.43417,35.54642],[139.43378,35.54655],[139.43367,35.54639],[139.43339,35.54636],[139.43311,35.54729],[139.43271,35.54731],[139.43199,35.54874],[139.42924,35.55006],[139.42779,35.55115],[139.42737,35.5512],[139.42766,35.55178],[139.42786,35.55162],[139.42803,35.55168],[139.42785,35.55227],[139.42749,35.55239],[139.42716,35.5533],[139.42688,35.55324],[139.42583,35.55447],[139.42364,35.55622],[139.42339,35.55667],[139.42307,35.55847],[139.42244,35.55944],[139.41942,35.56087],[139.418,35.56192],[139.41702,35.56176],[139.41623,35.56189],[139.41604,35.56243],[139.4158,35.56244],[139.41623,35.56381],[139.41343,35.56625],[139.41285,35.56622],[139.41278,35.5669],[139.41241,35.56743],[139.41184,35.5694],[139.41051,35.57142],[139.40977,35.57318],[139.40944,35.57473],[139.4091,35.57522],[139.40835,35.57563],[139.40735,35.57583],[139.40412,35.57547],[139.40332,35.57553],[139.40266,35.57602],[139.40299,35.5766],[139.40259,35.5765],[139.40239,35.57674],[139.40211,35.57645],[139.40151,35.57703],[139.40115,35.57789],[139.40105,35.58014],[139.40087,35.58049],[139.40033,35.58061],[139.4007,35.58147],[139.40055,35.58164],[139.39964,35.58193],[139.39921,35.58333],[139.39963,35.58381],[139.3998,35.58443],[139.39895,35.58466],[139.39821,35.58425],[139.39785,35.58421],[139.39751,35.58451],[139.3972,35.58435],[139.39667,35.58446],[139.39641,35.58438],[139.39608,35.58388],[139.39559,35.58431],[139.39518,35.58398],[139.39486,35.58408],[139.39478,35.58482],[139.39416,35.58564],[139.39294,35.58543],[139.39242,35.58558],[139.392,35.58531],[139.39108,35.58526],[139.39063,35.58555],[139.38942,35.58784],[139.38862,35.58853],[139.38795,35.58855],[139.38752,35.58816],[139.3874,35.58829],[139.38755,35.58859],[139.38533,35.58819],[139.38523,35.58748],[139.38437,35.58761],[139.38451,35.58848],[139.38296,35.58912],[139.38286,35.58975],[139.38299,35.58995],[139.38219,35.58981],[139.382,35.58951],[139.38101,35.58992],[139.38112,35.59014],[139.38079,35.59031],[139.38072,35.59052],[139.37984,35.5902],[139.37916,35.5902],[139.37888,35.59045],[139.3791,35.59071],[139.37756,35.59139],[139.37658,35.5921],[139.37504,35.59409],[139.37434,35.5945],[139.37346,35.59463],[139.37333,35.59491],[139.37285,35.59502],[139.37247,35.59464],[139.37251,35.5945],[139.37156,35.59433],[139.37083,35.59433],[139.37014,35.59451],[139.36755,35.59631],[139.36627,35.59749],[139.36397,35.59863],[139.36357,35.59852],[139.36346,35.59888],[139.36277,35.59913],[139.36185,35.59921],[139.35969,35.59863],[139.35793,35.59871],[139.35618,35.59923],[139.35489,35.6003],[139.35484,35.60055],[139.35455,35.60041],[139.35418,35.60048],[139.35387,35.60022],[139.35356,35.60036],[139.35336,35.60003],[139.35299,35.60035],[139.35294,35.60072],[139.35311,35.60067],[139.35307,35.60081],[139.35217,35.60102],[139.35068,35.60096],[139.34828,35.60163],[139.3483,35.60224],[139.34803,35.60222],[139.34804,35.60193],[139.34743,35.6019],[139.34729,35.60235],[139.34724,35.60195],[139.3442,35.60259],[139.34388,35.6029],[139.34338,35.60305],[139.34299,35.60365],[139.34279,35.6036],[139.34279,35.60318],[139.34256,35.60315],[139.3424,35.60374],[139.34194,35.60415],[139.34188,35.60454],[139.34127,35.60498],[139.34083,35.60485],[139.34,35.60553],[139.33927,35.6055],[139.33865,35.60495],[139.33811,35.60478],[139.33789,35.60435],[139.33747,35.60449],[139.33663,35.60438],[139.33591,35.6045],[139.33546,35.60419],[139.33515,35.60454],[139.33492,35.60415],[139.3343,35.6044],[139.3342,35.60407],[139.33346,35.60372],[139.33296,35.60382],[139.33281,35.60415],[139.33207,35.60429],[139.33147,35.60402],[139.33101,35.60425],[139.33087,35.60378],[139.33023,35.60315],[139.32957,35.60368],[139.32919,35.60335],[139.32894,35.60353],[139.32853,35.60344],[139.32817,35.60378],[139.32765,35.60381],[139.32742,35.60398],[139.32711,35.60382],[139.32687,35.60387],[139.32687,35.60432],[139.32638,35.60446],[139.3262,35.60469],[139.32564,35.6046],[139.32551,35.60489],[139.32519,35.60491],[139.32489,35.60515],[139.32472,35.60507],[139.32471,35.60469],[139.32442,35.60515],[139.32421,35.60515],[139.32434,35.60493],[139.32419,35.60483],[139.3234,35.60554],[139.323,35.60525],[139.3229,35.60562],[139.32256,35.60569],[139.32224,35.60601],[139.32189,35.6058],[139.32161,35.60584],[139.32146,35.60633],[139.32075,35.60653],[139.31983,35.60626],[139.32002,35.60573],[139.31972,35.60599],[139.31935,35.60593],[139.31896,35.60609],[139.31817,35.60595],[139.31785,35.60564],[139.31728,35.60579],[139.31712,35.60538],[139.31678,35.60555],[139.31638,35.60531],[139.31549,35.60527],[139.31462,35.60548],[139.31447,35.60534],[139.31477,35.60509],[139.3144,35.60473],[139.31428,35.6043],[139.31364,35.60467],[139.31311,35.60433],[139.31307,35.60465],[139.3128,35.60468],[139.31139,35.60431],[139.30923,35.60422],[139.3076,35.60479],[139.3079,35.60519],[139.30771,35.60534],[139.3071,35.60536],[139.30711,35.60509],[139.30614,35.60547],[139.30594,35.60514],[139.30553,35.60494],[139.30502,35.60507],[139.30504,35.60537],[139.30452,35.60527],[139.30449,35.6051],[139.30484,35.60473],[139.30419,35.60462],[139.30364,35.60472],[139.30352,35.60513],[139.30242,35.60547],[139.30168,35.60598],[139.30107,35.60582],[139.30098,35.60624],[139.30127,35.6064],[139.30116,35.6065],[139.30088,35.60657],[139.30036,35.60615],[139.29917,35.60624],[139.29901,35.6069],[139.29843,35.60708],[139.29875,35.60764],[139.29829,35.60769],[139.29803,35.60793],[139.297,35.608],[139.29671,35.60898],[139.29686,35.6094],[139.2966,35.60994],[139.29611,35.61028],[139.29565,35.61016],[139.29529,35.61026],[139.29435,35.61117],[139.2942,35.61119],[139.29424,35.61089],[139.29368,35.61089],[139.29358,35.61071],[139.2933,35.61067],[139.29252,35.61118],[139.29244,35.61134],[139.29266,35.61169],[139.29254,35.61184],[139.29214,35.61173],[139.29219,35.61194],[139.29142,35.61219],[139.2912,35.61192],[139.29099,35.61203],[139.29104,35.61229],[139.2904,35.61235],[139.29016,35.61258],[139.28992,35.61209],[139.28962,35.61196],[139.28934,35.61212],[139.28825,35.61219],[139.28802,35.61239],[139.28732,35.6126],[139.286,35.61251],[139.28584,35.61298],[139.28525,35.61339],[139.28483,35.61328],[139.28463,35.61293],[139.28416,35.61333],[139.28392,35.61326],[139.28377,35.61301],[139.28281,35.61327],[139.28266,35.61303],[139.28156,35.61284],[139.28093,35.6125],[139.28029,35.61169],[139.27988,35.61148],[139.279,35.61139],[139.27755,35.61154],[139.27653,35.61095],[139.27603,35.61085],[139.27406,35.61102],[139.27272,35.61035],[139.27181,35.61029],[139.27125,35.6098],[139.27065,35.60979],[139.26827,35.60924],[139.26738,35.6083],[139.26616,35.60811],[139.26589,35.60756],[139.26583,35.60676],[139.26614,35.60563],[139.26544,35.60404],[139.26515,35.60373],[139.26478,35.60246],[139.26349,35.60235],[139.26214,35.60296],[139.2612,35.60287],[139.25972,35.60354],[139.25877,35.60365],[139.25771,35.60423],[139.25684,35.60398],[139.25526,35.60297],[139.25355,35.60246],[139.25298,35.60199],[139.25222,35.60167],[139.2512,35.60252],[139.25075,35.6032],[139.24925,35.60366],[139.24835,35.60455],[139.24722,35.6051],[139.24687,35.60522],[139.24549,35.60513],[139.24424,35.60576],[139.24283,35.60625],[139.24197,35.60634],[139.24059,35.60625],[139.23906,35.60672],[139.23864,35.60698],[139.23809,35.60788],[139.23798,35.60935],[139.2378,35.6098],[139.23677,35.60974],[139.2365,35.60984],[139.23455,35.61169],[139.23307,35.61226],[139.23249,35.61287],[139.23155,35.61334],[139.22988,35.61457],[139.23048,35.6169],[139.23011,35.61743],[139.22966,35.61899],[139.22859,35.62053],[139.22817,35.62075],[139.22758,35.62082],[139.22617,35.62232],[139.22591,35.62348],[139.22345,35.62464],[139.22023,35.62557],[139.21964,35.6259],[139.21942,35.62623],[139.21948,35.62668],[139.22115,35.62856],[139.22147,35.62916],[139.22143,35.62947],[139.22078,35.63032],[139.22074,35.63061],[139.2199,35.63114],[139.21916,35.63197],[139.21854,35.63365],[139.21782,35.63383],[139.21728,35.63428],[139.21679,35.63448],[139.21643,35.63597],[139.21537,35.63708],[139.21525,35.63792],[139.21552,35.63927],[139.21506,35.64054],[139.21443,35.64155],[139.21481,35.6428],[139.21481,35.64396],[139.21574,35.64537],[139.21546,35.64612],[139.21489,35.64656],[139.21479,35.64694],[139.21424,35.64719],[139.21367,35.64778],[139.21274,35.64811],[139.21146,35.64912],[139.20994,35.6492],[139.20912,35.64951],[139.20816,35.64952],[139.20732,35.64972],[139.20672,35.65004],[139.20639,35.65062],[139.20564,35.65136],[139.20506,35.65162],[139.20356,35.65169],[139.20307,35.65239],[139.20258,35.65246],[139.20211,35.65301],[139.20131,35.65254],[139.20032,35.65258],[139.19974,35.65294],[139.19918,35.65286],[139.19826,35.653],[139.19707,35.65245],[139.19671,35.65193],[139.19573,35.65129],[139.19481,35.65133],[139.19412,35.65182],[139.19399,35.65178],[139.19247,35.65026],[139.19217,35.64829],[139.19182,35.64761],[139.19153,35.6474],[139.19092,35.64729],[139.18983,35.64653],[139.18919,35.64642],[139.18794,35.64655],[139.1872,35.64623],[139.18628,35.64607],[139.18423,35.64507],[139.18137,35.64574],[139.17909,35.64557],[139.17747,35.64691],[139.17699,35.64755],[139.17612,35.64819],[139.17585,35.64916],[139.17495,35.64989],[139.17332,35.65044],[139.17179,35.65034],[139.17085,35.65071],[139.16957,35.65149],[139.16873,35.65118],[139.16721,35.65099],[139.16695,35.65107],[139.16659,35.65234],[139.16686,35.65289],[139.16784,35.65386],[139.16796,35.65576],[139.16863,35.65682],[139.16834,35.65775],[139.16836,35.65856],[139.16702,35.6593],[139.16693,35.66064],[139.16723,35.66176],[139.16636,35.6622],[139.16611,35.66283],[139.16542,35.66303],[139.16513,35.66334],[139.16493,35.66416],[139.16514,35.66496],[139.16498,35.66528],[139.16422,35.66554],[139.16367,35.66645],[139.1621,35.66698],[139.16174,35.6674],[139.1616,35.66791],[139.15934,35.66752],[139.15838,35.66707],[139.15759,35.66688],[139.15708,35.66646],[139.15588,35.66658],[139.1536,35.66602],[139.15289,35.66639],[139.1514,35.66672],[139.14716,35.66682],[139.14626,35.66711],[139.14567,35.66747],[139.14436,35.66859],[139.14315,35.66903],[139.14282,35.66954],[139.14279,35.67001],[139.14076,35.67058],[139.13931,35.67045],[139.13893,35.67054],[139.13812,35.67136],[139.13673,35.67241],[139.1356,35.67234],[139.13352,35.6729],[139.13191,35.67238],[139.13136,35.67199],[139.13109,35.67201],[139.13065,35.67284],[139.12974,35.67372],[139.12962,35.6742],[139.12872,35.67538],[139.12774,35.67625],[139.12685,35.67686],[139.12483,35.67771],[139.12435,35.67777],[139.12357,35.67747],[139.12333,35.67752],[139.12234,35.6787],[139.11952,35.6803],[139.11893,35.68149],[139.11649,35.68382],[139.11503,35.68407],[139.11438,35.68436],[139.11363,35.68436],[139.11262,35.68496],[139.11116,35.68648],[139.11049,35.68774],[139.10909,35.68873],[139.10826,35.68974],[139.10586,35.69098],[139.10472,35.6909],[139.10332,35.69139],[139.10002,35.69201],[139.09928,35.69235],[139.09832,35.69224],[139.09741,35.69233],[139.0967,35.692],[139.09571,35.69112],[139.09542,35.69107],[139.09466,35.69138],[139.09389,35.69131],[139.09311,35.69151],[139.09211,35.69055],[139.08767,35.6918],[139.087,35.6921],[139.08579,35.69308],[139.0844,35.69308],[139.08358,35.69438],[139.08307,35.69452],[139.08201,35.69555],[139.07816,35.69571],[139.0771,35.6951],[139.07632,35.69489],[139.07549,35.69497],[139.07481,35.69556],[139.07221,35.69536],[139.07069,35.69759],[139.06897,35.69791],[139.06785,35.69831],[139.06674,35.6984],[139.06586,35.69785],[139.06531,35.69784],[139.06486,35.69815],[139.06425,35.69927],[139.06272,35.70073],[139.06143,35.70131],[139.05854,35.70207],[139.05777,35.70255],[139.05592,35.70316],[139.05318,35.70459],[139.05262,35.70481],[139.05209,35.70483],[139.05176,35.70599],[139.05068,35.70737],[139.05033,35.70734],[139.04967,35.70774],[139.04842,35.70801],[139.04795,35.70834],[139.04771,35.70896],[139.04738,35.70925],[139.04667,35.70948],[139.04625,35.70938],[139.04338,35.70957],[139.04114,35.71071],[139.03888,35.7112],[139.03822,35.71177],[139.03758,35.71275],[139.03616,35.71353],[139.03478,35.71496],[139.03361,35.71541],[139.03292,35.71597],[139.03235,35.71621],[139.03001,35.71632],[139.02898,35.71677],[139.0268,35.71817],[139.02637,35.71867],[139.02547,35.71915],[139.02466,35.71989],[139.02377,35.72107],[139.02253,35.72199],[139.02195,35.72301],[139.02207,35.7248],[139.0209,35.72728],[139.01917,35.72898],[139.01848,35.72987],[139.01804,35.7306],[139.01793,35.73122],[139.01666,35.73203],[139.01575,35.73311],[139.01498,35.73323],[139.01452,35.73436],[139.01379,35.73499],[139.01343,35.73607],[139.01291,35.73688],[139.01242,35.73849],[139.01188,35.73886],[139.01143,35.74059],[139.01068,35.74122],[139.01039,35.74229],[139.00947,35.74354],[139.00859,35.7444],[139.0081,35.74562],[139.00762,35.74581],[139.00712,35.74627],[139.00518,35.74896],[139.00502,35.74958],[139.00516,35.75045],[139.00321,35.7505],[139.00215,35.75012],[139.00038,35.75049],[138.99722,35.75198],[138.99653,35.75255],[138.99561,35.75377],[138.99257,35.75538],[138.99243,35.75575],[138.99275,35.75758],[138.9911,35.75936],[138.99064,35.7608],[138.99013,35.7615],[138.98996,35.7623],[138.98936,35.76349],[138.98824,35.76419],[138.98734,35.76503],[138.98651,35.76646],[138.98532,35.76705],[138.9844,35.76776],[138.98428,35.76878],[138.98377,35.76948],[138.98395,35.77096],[138.98366,35.77223],[138.98423,35.77324],[138.98511,35.77395],[138.98532,35.77442],[138.98568,35.77725],[138.98562,35.77798],[138.98596,35.77849],[138.98613,35.77978],[138.9867,35.78089],[138.98671,35.78123],[138.98608,35.78152],[138.98643,35.78225],[138.98469,35.78384],[138.98472,35.78447],[138.98505,35.78527],[138.98486,35.78561],[138.9834,35.78606],[138.98168,35.78713],[138.98076,35.78733],[138.98014,35.78707],[138.97952,35.78709],[138.97909,35.78781],[138.97754,35.78853],[138.97672,35.78924],[138.97606,35.79109],[138.97608,35.79187],[138.97619,35.79207],[138.97699,35.7922],[138.97711,35.79275],[138.97662,35.79336],[138.97592,35.79373],[138.97565,35.7945],[138.97468,35.79489],[138.97397,35.79693],[138.97359,35.79758],[138.97323,35.79799],[138.97242,35.79841],[138.9718,35.799],[138.97137,35.80006],[138.97111,35.80142],[138.9714,35.80286],[138.97124,35.8037],[138.97032,35.80458],[138.97022,35.80487],[138.97059,35.8057],[138.97063,35.80696],[138.97094,35.80796],[138.97086,35.80945],[138.97108,35.80998],[138.97206,35.81066],[138.97223,35.81152],[138.9719,35.813],[138.97206,35.8137],[138.97185,35.81438],[138.97148,35.81478],[138.96977,35.81585],[138.96963,35.81621],[138.96976,35.81745],[138.96945,35.81906],[138.96998,35.82026],[138.97007,35.82128],[138.96965,35.82273],[138.96973,35.82451],[138.97009,35.825],[138.97014,35.82599],[138.97048,35.82736],[138.96977,35.83123],[138.9693,35.83138],[138.96684,35.83024],[138.96592,35.83014],[138.96425,35.82938],[138.96297,35.82933],[138.9622,35.82961],[138.96139,35.83066],[138.9593,35.83136],[138.95832,35.83291],[138.95751,35.8333],[138.95615,35.83448],[138.95529,35.83495],[138.95411,35.836],[138.95326,35.83652],[138.95225,35.83774],[138.95067,35.83892],[138.94912,35.84047],[138.9484,35.84171],[138.94748,35.84271],[138.94734,35.8433],[138.94798,35.84482],[138.94781,35.84756],[138.94842,35.84839],[138.94855,35.84954],[138.9468,35.85284],[138.94612,35.85373],[138.94518,35.85445],[138.94459,35.85465],[138.94415,35.85456],[138.94393,35.85482],[138.94375,35.856],[138.94302,35.8572],[138.94322,35.85819],[138.94303,35.8591],[138.94311,35.85958],[138.94287,35.86016],[138.94327,35.86062],[138.9439,35.86086],[138.94489,35.86275],[138.94658,35.86447],[138.946,35.86532],[138.94588,35.86637],[138.94533,35.86704],[138.94514,35.86793],[138.94526,35.86812],[138.94661,35.86874],[138.94909,35.86897],[138.94993,35.86949],[138.95226,35.87216],[138.95424,35.87387],[138.95446,35.87491],[138.95523,35.8753],[138.95619,35.87556],[138.95697,35.87597],[138.96008,35.87678],[138.96132,35.87687],[138.96229,35.87677],[138.9652,35.87779],[138.96641,35.87897],[138.96674,35.87964],[138.9667,35.88064],[138.96741,35.88182],[138.96802,35.88221],[138.97044,35.88199],[138.97249,35.88198],[138.97441,35.88281],[138.9759,35.88324],[138.97678,35.88396],[138.97893,35.88501],[138.97921,35.885],[138.98306,35.88299],[138.98367,35.88256],[138.98427,35.88181],[138.98526,35.88118],[138.98685,35.88136],[138.98847,35.88112],[138.99227,35.88251],[138.99327,35.88309],[138.99458,35.88326],[138.99521,35.88414],[138.99588,35.88445],[138.9966,35.88443],[138.99712,35.88415],[138.999,35.88425],[139.00093,35.88401],[139.00289,35.88622],[139.00496,35.88738],[139.00568,35.88824],[139.00666,35.88962],[139.00654,35.891],[139.00681,35.89364],[139.00752,35.89447],[139.0087,35.89538],[139.01032,35.89717],[139.01055,35.8971],[139.01338,35.89826],[139.01572,35.89818],[139.0184,35.89842],[139.01941,35.89813],[139.02035,35.89736],[139.02089,35.89716],[139.02401,35.89729],[139.02545,35.89553],[139.02933,35.89291],[139.03404,35.89093],[139.03528,35.89013],[139.03742,35.88922],[139.03817,35.88858],[139.03932,35.88702],[139.04035,35.88631],[139.04176,35.88608],[139.04287,35.8856],[139.04444,35.88382],[139.04526,35.88367],[139.04575,35.88343],[139.04729,35.8815],[139.04833,35.88121],[139.04984,35.87883],[139.05117,35.87825],[139.0524,35.87819],[139.05539,35.87748],[139.05706,35.87756],[139.05797,35.87744],[139.05931,35.8749],[139.05998,35.87473],[139.06163,35.87363],[139.06345,35.87328],[139.06506,35.87273],[139.0662,35.8728],[139.06706,35.8724],[139.06919,35.87194],[139.07007,35.87158],[139.07224,35.8716],[139.07255,35.87172],[139.07427,35.87328],[139.07514,35.87429],[139.07611,35.87483],[139.07776,35.87534],[139.07997,35.87532],[139.08254,35.87487],[139.08331,35.87396],[139.08399,35.87343],[139.08588,35.87281],[139.08923,35.87103],[139.09166,35.86903],[139.0945,35.86951],[139.09606,35.86938],[139.09909,35.86867],[139.09949,35.86791],[139.10028,35.86719],[139.10137,35.86569],[139.10207,35.86639],[139.10268,35.86658],[139.10535,35.8663],[139.10613,35.86592],[139.10698,35.86575],[139.10967,35.86571],[139.11173,35.86468],[139.11445,35.86537],[139.11577,35.86447],[139.11735,35.86459],[139.11927,35.86429],[139.12024,35.86442],[139.12182,35.86493],[139.12316,35.86507],[139.12416,35.86486],[139.12608,35.86504],[139.12742,35.86564],[139.1292,35.86556],[139.13124,35.86447],[139.13189,35.86443],[139.13319,35.86458],[139.134,35.86505],[139.13536,35.86539],[139.13918,35.86392],[139.14037,35.86378],[139.14176,35.86326],[139.14307,35.86339],[139.14436,35.86286],[139.14612,35.8629],[139.14754,35.86271],[139.14845,35.86229],[139.15028,35.86094],[139.15149,35.86049],[139.1533,35.85932],[139.15427,35.8591],[139.15512,35.85857],[139.15725,35.85778],[139.15859,35.85747],[139.1594,35.85707],[139.16,35.85564],[139.16114,35.85443],[139.16149,35.8533],[139.16215,35.85211],[139.16325,35.85097],[139.16424,35.85073],[139.16503,35.85026],[139.16617,35.84997],[139.16787,35.84987],[139.16909,35.84998],[139.16975,35.8494],[139.17111,35.84861],[139.17251,35.8485],[139.17321,35.84865],[139.17365,35.84839],[139.17436,35.84831],[139.17544,35.8472],[139.17753,35.8465],[139.17948,35.84555],[139.18026,35.84489],[139.18107,35.84477],[139.18183,35.84379],[139.18363,35.84357],[139.18416,35.84279],[139.18676,35.84292],[139.18748,35.84223],[139.18884,35.84187],[139.18928,35.84137],[139.19038,35.84114],[139.19244,35.84027],[139.19581,35.84005],[139.19682,35.84025],[139.19825,35.8411],[139.19947,35.84125],[139.20167,35.84105],[139.20314,35.8412],[139.2037,35.84149],[139.20386,35.84204],[139.2048,35.84303],[139.20494,35.84466],[139.20633,35.84591],[139.20761,35.84644],[139.20987,35.84618],[139.21265,35.84661],[139.21288,35.8459],[139.21369,35.84553],[139.21427,35.8455],[139.21492,35.84578],[139.21564,35.84499],[139.21567,35.84447],[139.21584,35.84431],[139.21755,35.84353],[139.21822,35.84274],[139.21933,35.84252],[139.22018,35.8413],[139.22198,35.8407],[139.22319,35.84074],[139.22362,35.84052],[139.22455,35.8405],[139.22666,35.83945],[139.22765,35.83912],[139.22804,35.83833],[139.22923,35.83766],[139.22958,35.83719],[139.23005,35.83691],[139.23127,35.83664],[139.23223,35.8366],[139.23281,35.83675],[139.23423,35.83813],[139.2349,35.83787],[139.23536,35.83805],[139.23702,35.84015],[139.23904,35.84052],[139.24123,35.84004],[139.24171,35.8382],[139.24253,35.83679],[139.24278,35.8366],[139.24366,35.83683],[139.24424,35.83674],[139.24552,35.83699],[139.24681,35.83689],[139.24762,35.83738],[139.24838,35.83757],[139.24991,35.83744],[139.25113,35.83756],[139.25177,35.83808],[139.25226,35.83825],[139.25467,35.83808],[139.25642,35.83777],[139.25658,35.8377],[139.25653,35.8371],[139.25669,35.83707],[139.2588,35.83727],[139.25889,35.83639],[139.26043,35.83599],[139.26142,35.83667],[139.26312,35.83731],[139.26555,35.83751],[139.26664,35.83821],[139.26824,35.83824],[139.27152,35.83968],[139.2763,35.8394],[139.27841,35.8396],[139.27992,35.83925],[139.28033,35.84068],[139.28117,35.84036],[139.28168,35.83976],[139.28288,35.83717],[139.28403,35.83635],[139.28494,35.83601],[139.28516,35.83602],[139.28603,35.83682],[139.28656,35.83707],[139.28807,35.83726],[139.28976,35.83786],[139.29091,35.83796],[139.2924,35.837],[139.29307,35.83618],[139.29343,35.83608],[139.2956,35.83385],[139.29596,35.83403],[139.29645,35.83533],[139.29682,35.83548],[139.29792,35.8354],[139.29975,35.83478],[139.30002,35.83482],[139.30015,35.83517],[139.30117,35.83496],[139.30162,35.8347],[139.30208,35.83402],[139.30139,35.83394],[139.30123,35.83277],[139.30166,35.83186],[139.30176,35.83109],[139.30117,35.82969],[139.30205,35.82856],[139.30205,35.82723],[139.30269,35.82601],[139.30269,35.82483],[139.30244,35.82421],[139.30259,35.82405],[139.30362,35.82431],[139.30407,35.824],[139.30486,35.82387],[139.30498,35.82329],[139.30477,35.8224],[139.30701,35.82312],[139.31073,35.82476],[139.3116,35.82533],[139.31269,35.82546],[139.31492,35.82524],[139.31524,35.82499],[139.31515,35.82453],[139.31619,35.82359],[139.31596,35.82307],[139.31595,35.82246],[139.3165,35.8209],[139.3165,35.81936],[139.31505,35.81689],[139.31502,35.81427],[139.31675,35.81269],[139.31679,35.81147],[139.31781,35.81066],[139.31834,35.80983],[139.31909,35.80698],[139.3194,35.80638],[139.31971,35.80631],[139.32013,35.8048],[139.32077,35.80344],[139.32262,35.80027],[139.32225,35.7995],[139.32397,35.79687],[139.3254,35.79541],[139.32573,35.79521],[139.33036,35.79434],[139.33037,35.79362],[139.33278,35.79189],[139.33488,35.7937],[139.33667,35.79377],[139.3385,35.79459],[139.34146,35.79439],[139.34288,35.79403],[139.34336,35.79419],[139.34335,35.7947],[139.34382,35.7948],[139.34686,35.79641],[139.34726,35.79632],[139.34761,35.79602],[139.34763,35.79545],[139.34787,35.79525],[139.34971,35.79491],[139.35026,35.79341],[139.35066,35.79327],[139.35271,35.7935],[139.35306,35.793],[139.35349,35.79287],[139.35355,35.79327],[139.35377,35.79335],[139.354,35.79321],[139.35492,35.79372],[139.35522,35.79344],[139.35665,35.79348],[139.35857,35.79298],[139.35889,35.79193],[139.35984,35.79162],[139.36273,35.79191],[139.36372,35.7917],[139.36727,35.79178],[139.3675,35.79145],[139.36992,35.79173],[139.37026,35.7909],[139.36871,35.79029],[139.36987,35.78761],[139.36783,35.78704],[139.36815,35.78606],[139.36719,35.7856],[139.36767,35.78416],[139.36942,35.78326],[139.3699,35.78261],[139.36991,35.78154],[139.37145,35.7816],[139.37173,35.78039],[139.37301,35.77972],[139.37233,35.77916],[139.37146,35.77881],[139.37044,35.77877],[139.37027,35.77829],[139.37104,35.77821],[139.3718,35.77873],[139.37255,35.77887],[139.37361,35.77969],[139.3744,35.78009],[139.37552,35.78046],[139.37756,35.77996],[139.37993,35.77891],[139.38014,35.77875],[139.38019,35.77817],[139.37978,35.77722],[139.37988,35.77701],[139.38035,35.77693],[139.38134,35.7773],[139.38154,35.77703],[139.38136,35.77593],[139.38148,35.77427],[139.38034,35.77331],[139.38001,35.77199],[139.37919,35.77144],[139.37895,35.77089],[139.37894,35.77042],[139.37955,35.76881],[139.37969,35.76721],[139.38011,35.76651],[139.38068,35.76605],[139.3813,35.76584],[139.38207,35.76598],[139.38341,35.76548],[139.38507,35.76523],[139.3896,35.76714],[139.39166,35.76741],[139.39182,35.76683],[139.39046,35.764],[139.39058,35.76371],[139.39101,35.7635],[139.39215,35.76329],[139.39361,35.76349],[139.39591,35.76424],[139.39745,35.76409],[139.39824,35.7643],[139.39883,35.76497],[139.39898,35.7659],[139.39999,35.76677],[139.40047,35.76803],[139.40151,35.76855],[139.4031,35.76843],[139.40459,35.76914],[139.4051,35.76912],[139.40593,35.76875],[139.40734,35.76847],[139.40951,35.76869],[139.41198,35.76794],[139.41286,35.76809],[139.41368,35.76717],[139.41544,35.76693],[139.41603,35.76623],[139.41711,35.76609],[139.41804,35.76615],[139.41854,35.76596],[139.41956,35.7659],[139.4205,35.76623],[139.42221,35.7678],[139.42335,35.76719],[139.42425,35.76712],[139.42495,35.76726],[139.4263,35.76672],[139.42762,35.76645],[139.42882,35.76696],[139.42917,35.76697],[139.43134,35.76635],[139.43181,35.76635],[139.43251,35.7665],[139.43322,35.76735],[139.43374,35.76739],[139.4342,35.76722],[139.43546,35.76712],[139.43641,35.76721],[139.43715,35.76759],[139.43781,35.76767],[139.43827,35.76796],[139.43848,35.76854],[139.43796,35.76908],[139.43828,35.76954],[139.43866,35.76959],[139.43963,35.76916],[139.43995,35.76844],[139.44,35.76761],[139.44088,35.76693],[139.44267,35.76676],[139.4434,35.7669],[139.44417,35.76666],[139.44497,35.76666],[139.44581,35.76766],[139.4465,35.76809],[139.44817,35.76858],[139.44998,35.76873],[139.45102,35.76933],[139.45135,35.76933],[139.45319,35.7685],[139.4538,35.76935],[139.45504,35.7696],[139.45675,35.7697],[139.45743,35.76937],[139.45806,35.76931],[139.45866,35.76986],[139.45892,35.77166],[139.4592,35.77216],[139.45964,35.7725],[139.46079,35.77257],[139.46134,35.77343],[139.4625,35.77346],[139.46274,35.77305],[139.46332,35.77288],[139.4639,35.77308],[139.46427,35.77353],[139.46467,35.77372],[139.46636,35.77374],[139.46812,35.77415],[139.46985,35.77421],[139.47063,35.77352],[139.47116,35.7734],[139.47226,35.77433],[139.47407,35.77466],[139.47421,35.77495],[139.47397,35.77568],[139.47451,35.77534],[139.47588,35.77522],[139.47671,35.77533],[139.47704,35.77557],[139.47694,35.77574],[139.47631,35.77635],[139.47564,35.77617],[139.47535,35.77685],[139.47641,35.77727],[139.47693,35.77789],[139.47842,35.77836],[139.47861,35.77881],[139.4794,35.77941],[139.4795,35.77994],[139.48025,35.78025],[139.48047,35.78012],[139.48146,35.78056],[139.48223,35.78066],[139.48229,35.781],[139.48252,35.78109],[139.48277,35.78069],[139.48437,35.78084],[139.48549,35.78071],[139.48657,35.7801],[139.48858,35.77939],[139.48906,35.77991],[139.4897,35.78008],[139.48961,35.77961],[139.48915,35.77968],[139.48896,35.77947],[139.48899,35.77926],[139.48958,35.77915],[139.48975,35.77937],[139.49008,35.77936],[139.49008,35.77991],[139.48974,35.78046],[139.49007,35.78083],[139.49038,35.7809],[139.49081,35.78061],[139.49082,35.78016],[139.49106,35.78001],[139.49147,35.7803],[139.49375,35.77958],[139.49342,35.78046],[139.49349,35.7817],[139.49576,35.78167],[139.49605,35.78144],[139.49635,35.77922],[139.49665,35.77877],[139.49692,35.77873],[139.49803,35.78121],[139.49855,35.78133],[139.49938,35.78217],[139.50039,35.78216],[139.50374,35.78286],[139.5045,35.78315],[139.5051,35.78284],[139.5067,35.78277],[139.50777,35.78354],[139.50797,35.78418],[139.50833,35.78438],[139.50846,35.78466],[139.51191,35.78508],[139.51256,35.78536],[139.51315,35.78601],[139.51354,35.7877],[139.51379,35.78836],[139.51404,35.7885],[139.51684,35.78895],[139.52028,35.78837],[139.52118,35.78846],[139.52256,35.78923],[139.52372,35.79033],[139.52372,35.79053],[139.52302,35.79121],[139.52311,35.79171],[139.5234,35.79184],[139.52552,35.79188],[139.52594,35.79251],[139.5271,35.79267],[139.52769,35.7929],[139.52926,35.79413],[139.53102,35.79622],[139.53177,35.79684],[139.5325,35.79831],[139.53409,35.80061],[139.53686,35.80394],[139.5417,35.80731],[139.54429,35.80664],[139.54526,35.80458],[139.54562,35.8042],[139.54667,35.80369],[139.5472,35.80266],[139.54708,35.80165],[139.54622,35.79923],[139.54502,35.79769],[139.54479,35.79676],[139.54409,35.7965],[139.54024,35.79405],[139.53983,35.79374],[139.53866,35.79221],[139.53733,35.7915],[139.53758,35.79076],[139.54077,35.78986],[139.54074,35.78949],[139.54127,35.78958],[139.5414,35.78923],[139.54159,35.78929],[139.54379,35.78819],[139.54374,35.78208],[139.54298,35.77981],[139.54264,35.77955],[139.53977,35.77834],[139.53987,35.77778],[139.53749,35.77688],[139.53754,35.77674],[139.53683,35.77611],[139.5362,35.77596],[139.53626,35.77569],[139.53648,35.77563],[139.53595,35.77518],[139.53337,35.77378],[139.53223,35.77342],[139.53075,35.77323],[139.52808,35.77344],[139.52845,35.77304],[139.52635,35.77162],[139.52595,35.77214],[139.52403,35.77183],[139.52282,35.77189],[139.52055,35.77003],[139.51739,35.76681],[139.5172,35.76619],[139.51639,35.76588],[139.51637,35.76557],[139.51652,35.76549],[139.5177,35.76586],[139.52138,35.76757],[139.52705,35.76826],[139.52727,35.76781],[139.52862,35.76822],[139.5303,35.76835],[139.53279,35.76944],[139.53661,35.77026],[139.54167,35.772],[139.54407,35.77331],[139.54657,35.77414],[139.54766,35.77423],[139.54784,35.77398],[139.54765,35.77108],[139.54705,35.77012],[139.54695,35.76955],[139.54702,35.76801],[139.54764,35.76617],[139.5474,35.76525],[139.54713,35.7649],[139.54699,35.7639],[139.54714,35.76275],[139.54669,35.76269],[139.54698,35.7603],[139.54583,35.75807],[139.54512,35.75758],[139.54435,35.75548],[139.54458,35.75476],[139.54483,35.75462],[139.54678,35.75509],[139.54717,35.75411],[139.54692,35.7535],[139.54716,35.75338],[139.55006,35.75438],[139.55,35.75526],[139.55047,35.75537],[139.55111,35.75515],[139.55151,35.75525],[139.55204,35.75596],[139.55269,35.75599],[139.55307,35.75564],[139.55356,35.75558],[139.5547,35.75558],[139.55525,35.75574],[139.55539,35.75775],[139.55577,35.75775],[139.55579,35.75804],[139.55603,35.75814],[139.55615,35.75888],[139.5572,35.759],[139.55723,35.75928],[139.55771,35.75936],[139.55778,35.75958],[139.55843,35.75951],[139.5586,35.75944],[139.55859,35.75926],[139.55892,35.75922],[139.55907,35.75934],[139.55987,35.7592],[139.56183,35.7596],[139.56202,35.75991],[139.56181,35.76107],[139.56268,35.76139],[139.56358,35.76284],[139.56474,35.76282],[139.56503,35.76196],[139.56561,35.76188],[139.56678,35.76196],[139.56679,35.76282],[139.56767,35.76304],[139.56793,35.76279],[139.56837,35.76282],[139.56824,35.76351],[139.56931,35.76363],[139.56946,35.76317],[139.56972,35.7633],[139.56973,35.76301],[139.57108,35.76334],[139.57087,35.76416],[139.57055,35.76423],[139.57022,35.76468],[139.57004,35.76559],[139.57035,35.76573],[139.57071,35.7654],[139.57243,35.76582],[139.57239,35.76645],[139.57364,35.7665],[139.5742,35.76614],[139.57459,35.76623],[139.57424,35.76748],[139.57434,35.76819],[139.57689,35.76807],[139.57739,35.76914],[139.57807,35.76947],[139.57817,35.77085],[139.58068,35.77109],[139.58065,35.77179],[139.5809,35.77179],[139.581,35.77112],[139.58224,35.77121],[139.58186,35.77245],[139.58377,35.77285],[139.58361,35.77364],[139.584,35.7739],[139.58398,35.77483],[139.5848,35.77514],[139.58654,35.77518],[139.58668,35.77528],[139.58794,35.77681],[139.58876,35.77853],[139.59341,35.77719],[139.59371,35.7772],[139.59382,35.77742],[139.5939,35.77816],[139.59414,35.7787],[139.5972,35.77837],[139.59691,35.77748],[139.59714,35.77717],[139.59694,35.77641],[139.60438,35.77502],[139.60447,35.77465],[139.60398,35.77422],[139.60307,35.7742],[139.60268,35.77436],[139.60082,35.77353],[139.59844,35.77214],[139.59739,35.77098],[139.59743,35.77077],[139.59835,35.77017],[139.59768,35.76993],[139.59789,35.76937],[139.59821,35.76914],[139.59864,35.7691],[139.60286,35.77096],[139.60317,35.77086],[139.60384,35.77012],[139.60429,35.76997],[139.60636,35.77095],[139.60647,35.77045],[139.60714,35.76938],[139.6073,35.76926],[139.6077,35.76933],[139.60777,35.76898],[139.60875,35.76884],[139.60914,35.76955],[139.6099,35.77032],[139.61127,35.77107],[139.61143,35.77034],[139.61174,35.77019],[139.61132,35.76971],[139.61145,35.76945],[139.61171,35.76938],[139.61248,35.77043],[139.6141,35.77054],[139.61486,35.77087],[139.61542,35.77087],[139.61674,35.77061],[139.61723,35.77035],[139.61682,35.76844],[139.61734,35.76812],[139.61758,35.76773],[139.61773,35.76665],[139.61947,35.76682],[139.62299,35.76687],[139.62323,35.7684],[139.62408,35.77125],[139.62502,35.77251],[139.62526,35.77228],[139.6256,35.77302],[139.62526,35.77369],[139.62428,35.77413],[139.62421,35.77433],[139.62445,35.7751],[139.62458,35.77713],[139.62444,35.77818],[139.62473,35.77872],[139.62471,35.78011],[139.62449,35.7805],[139.62453,35.78081],[139.62567,35.78175],[139.62582,35.78204],[139.62636,35.78235],[139.62717,35.78257],[139.62774,35.78313],[139.62793,35.78374],[139.62787,35.78466],[139.62907,35.78574],[139.63035,35.78536],[139.63169,35.78634],[139.63186,35.78656],[139.63174,35.78699],[139.63204,35.78714],[139.63213,35.78744],[139.63157,35.7882],[139.63273,35.78929],[139.63372,35.7895],[139.63414,35.78996],[139.63423,35.79034],[139.63486,35.79057],[139.63611,35.79045],[139.63683,35.79081],[139.63754,35.79085],[139.63792,35.7912],[139.63765,35.79155],[139.63941,35.79285],[139.64041,35.79717],[139.64057,35.79769],[139.64086,35.79794],[139.64369,35.79822],[139.64569,35.79801],[139.64787,35.79747],[139.65336,35.80023],[139.65778,35.8005],[139.66737,35.80045],[139.67106,35.8],[139.67383,35.79917],[139.67593,35.79889],[139.67838,35.79882],[139.68189,35.7993],[139.68662,35.80063],[139.68783,35.80084],[139.6906,35.8008],[139.69316,35.8004],[139.69534,35.79968],[139.69686,35.7989],[139.69968,35.79723],[139.70526,35.79341],[139.7073,35.79253],[139.70975,35.79195],[139.71832,35.79188],[139.72074,35.79143],[139.72224,35.79073],[139.72315,35.78839],[139.72372,35.7876],[139.72446,35.78727],[139.72659,35.78749],[139.73005,35.78868],[139.73187,35.78953],[139.73387,35.79005],[139.73533,35.78957],[139.7375,35.78828],[139.73854,35.7874],[139.73783,35.78053],[139.73805,35.78022],[139.74262,35.7817],[139.74582,35.78328],[139.74629,35.78389],[139.74659,35.78493],[139.74677,35.78685],[139.74765,35.78669],[139.74886,35.786],[139.74902,35.78619],[139.75003,35.78594],[139.75122,35.78643],[139.75142,35.78612],[139.75307,35.78638],[139.75349,35.78649],[139.75378,35.78695],[139.75484,35.78702],[139.755,35.7869],[139.7554,35.78719],[139.75532,35.78759],[139.75626,35.78864],[139.75601,35.78882],[139.75589,35.78968],[139.7556,35.79003],[139.75899,35.79317],[139.75997,35.79434],[139.76077,35.79741],[139.7606,35.79788],[139.75981,35.79893],[139.75821,35.80003],[139.75628,35.80175],[139.7551,35.80337],[139.75066,35.80667],[139.7505,35.80752],[139.75093,35.80789],[139.7503,35.80862],[139.75083,35.80891],[139.75045,35.80929],[139.7508,35.80959],[139.75077,35.81017],[139.75191,35.81094],[139.75248,35.81057],[139.75301,35.81094],[139.75384,35.81047],[139.75446,35.81087],[139.75478,35.81057],[139.7552,35.81073],[139.75561,35.81271],[139.75759,35.81197],[139.75977,35.81232],[139.76127,35.81289],[139.76428,35.81491],[139.76578,35.81574],[139.76515,35.81644],[139.76588,35.81726],[139.76665,35.81758],[139.7681,35.81771],[139.77087,35.81738],[139.77176,35.81687],[139.77745,35.81066],[139.77748,35.81024],[139.77851,35.80894],[139.77923,35.80825],[139.77964,35.80835],[139.78114,35.80723],[139.78313,35.80719],[139.78396,35.8069],[139.78723,35.80688],[139.79178,35.80542],[139.794,35.8052],[139.79535,35.80534],[139.7967,35.8058],[139.79884,35.80619],[139.80037,35.80706],[139.8008,35.80771],[139.8023,35.80855],[139.80471,35.80879],[139.80961,35.80831],[139.81239,35.80826],[139.8133,35.80832],[139.8147,35.80871],[139.81651,35.80956],[139.81793,35.81042],[139.81813,35.81142],[139.8186,35.81177],[139.81873,35.81176],[139.81861,35.81106],[139.81965,35.81178],[139.82053,35.81123],[139.8211,35.81144],[139.82011,35.8128],[139.82106,35.81508],[139.82339,35.81415],[139.82369,35.81388],[139.82493,35.8119],[139.82493,35.81146],[139.82465,35.81065],[139.82292,35.80941],[139.82249,35.80842],[139.82075,35.80554],[139.82022,35.8026],[139.82032,35.80102],[139.81965,35.79959],[139.81968,35.79898],[139.82049,35.79754],[139.82121,35.79675],[139.82277,35.79546],[139.82444,35.79495],[139.82507,35.79394],[139.82605,35.79336],[139.82698,35.79351],[139.8284,35.79405],[139.83085,35.79463],[139.83277,35.79568],[139.83457,35.79792],[139.83581,35.799],[139.8369,35.80046],[139.83801,35.80081],[139.83952,35.8007],[139.84339,35.7998],[139.84434,35.79906],[139.84586,35.79754],[139.84721,35.79583],[139.84852,35.79528],[139.85356,35.79156],[139.85529,35.79085],[139.85649,35.79096],[139.85737,35.79177],[139.85805,35.79269],[139.85899,35.79485],[139.85954,35.79523],[139.8599,35.79533],[139.86283,35.79484],[139.86385,35.79483],[139.86772,35.79668],[139.86872,35.79701],[139.87136,35.79735],[139.87339,35.79717],[139.87431,35.79686],[139.87569,35.79553],[139.87626,35.79479],[139.87661,35.79383],[139.87658,35.7932],[139.87636,35.79261],[139.87596,35.79219],[139.87326,35.79039],[139.87155,35.78798],[139.87119,35.78663],[139.87134,35.78558],[139.87176,35.78475],[139.87204,35.78504],[139.87336,35.78292],[139.87454,35.78178],[139.8763,35.78124],[139.87725,35.78117],[139.88312,35.78257],[139.88724,35.78402],[139.88876,35.78384],[139.89378,35.78275],[139.89433,35.78164],[139.89457,35.78056],[139.89446,35.77992],[139.8938,35.77871],[139.892,35.77743],[139.88848,35.77579],[139.88285,35.77353],[139.88175,35.77286],[139.88076,35.77167],[139.88029,35.7708],[139.87946,35.76849],[139.87946,35.76752],[139.88009,35.76595],[139.88079,35.76477],[139.88247,35.76258],[139.88321,35.75862],[139.88405,35.75741],[139.89139,35.74927],[139.89288,35.74808],[139.89666,35.74671],[139.89767,35.74613],[139.89856,35.74541],[139.89945,35.74439],[139.90068,35.74135],[139.90097,35.74006],[139.90102,35.7385],[139.90089,35.73746],[139.90036,35.73617],[139.89794,35.73187],[139.89757,35.73058],[139.89714,35.72784],[139.89721,35.72675],[139.89765,35.725],[139.89798,35.72429],[139.89865,35.72345],[139.90478,35.71888],[139.9057,35.71784],[139.90677,35.71577],[139.90812,35.71386],[139.90926,35.71292],[139.91344,35.71051],[139.91477,35.70951],[139.91621,35.708],[139.91655,35.70529],[139.91699,35.70352],[139.91865,35.69984],[139.91891,35.69827],[139.91874,35.69771],[139.91385,35.69093],[139.90865,35.68551],[139.90715,35.68438],[139.90594,35.68367],[139.90379,35.68312],[139.89598,35.68236],[139.89205,35.68164],[139.89087,35.68131],[139.88795,35.67999],[139.88694,35.67926],[139.88643,35.67857],[139.88562,35.67486],[139.88553,35.67277],[139.88565,35.67207],[139.88723,35.66879],[139.88737,35.66792],[139.88711,35.66451],[139.88739,35.65617],[139.8869,35.65373],[139.88349,35.64512],[139.88263,35.64438],[139.8796,35.64275],[139.87146,35.63864],[139.87073,35.6389],[139.869,35.6392],[139.86593,35.63864],[139.86242,35.63856],[139.85947,35.63893],[139.85656,35.63975],[139.85403,35.64087],[139.85199,35.64218],[139.84988,35.64239],[139.84948,35.64267],[139.85038,35.65653],[139.84554,35.65672],[139.84296,35.65682],[139.84273,35.65491],[139.84256,35.65467],[139.84255,35.6534],[139.84234,35.65342],[139.8422,35.65323],[139.84221,35.65189],[139.84196,35.65085],[139.84173,35.65075],[139.84137,35.64792],[139.84025,35.63389],[139.83677,35.63355],[139.83657,35.63336],[139.82841,35.6326],[139.82779,35.63265],[139.82767,35.63251],[139.82167,35.63198],[139.82154,35.63153],[139.82171,35.63033],[139.82062,35.63022],[139.82069,35.62975],[139.82063,35.62974],[139.82061,35.63024],[139.8217,35.63034],[139.82125,35.63344],[139.82559,35.63385],[139.82558,35.63408],[139.82561,35.63386],[139.83368,35.63463],[139.83448,35.64407],[139.82607,35.64326],[139.82606,35.64306],[139.82604,35.64326],[139.82167,35.64294],[139.82042,35.64163],[139.80812,35.64046],[139.80772,35.64334],[139.80879,35.64368],[139.80861,35.64502],[139.80915,35.64524],[139.80917,35.64568],[139.80885,35.64565],[139.8088,35.6454],[139.8086,35.64539],[139.80852,35.64561],[139.80812,35.64559],[139.80636,35.64521],[139.80604,35.64488],[139.80633,35.64279],[139.80614,35.64267],[139.80699,35.6369],[139.80137,35.63636],[139.80149,35.63281],[139.80033,35.63106],[139.80219,35.62622],[139.79886,35.62176],[139.79862,35.62176],[139.79202,35.62987],[139.78733,35.62733],[139.78539,35.62971],[139.78493,35.62961],[139.77865,35.63727],[139.77908,35.63772],[139.78121,35.63878],[139.78197,35.63851],[139.78263,35.63769],[139.78414,35.6385],[139.78437,35.63944],[139.78483,35.63969],[139.78493,35.63958],[139.78519,35.63972],[139.78509,35.63983],[139.787,35.64087],[139.78709,35.64075],[139.78722,35.64082],[139.78712,35.64093],[139.7885,35.64168],[139.78862,35.64161],[139.78863,35.64175],[139.78991,35.64245],[139.79006,35.64238],[139.79017,35.64259],[139.79305,35.64415],[139.7932,35.64408],[139.79318,35.64421],[139.79402,35.64467],[139.79419,35.64461],[139.79414,35.64474],[139.79444,35.6449],[139.79506,35.64412],[139.79499,35.644],[139.79515,35.64402],[139.79588,35.64312],[139.79629,35.64318],[139.7962,35.64329],[139.79747,35.64398],[139.79809,35.64474],[139.79769,35.64786],[139.79676,35.64843],[139.79483,35.65043],[139.79456,35.65026],[139.79399,35.65083],[139.79347,35.65047],[139.79315,35.65055],[139.79304,35.65031],[139.79509,35.64834],[139.7947,35.64722],[139.78016,35.63935],[139.7788,35.63937],[139.77609,35.64203],[139.77613,35.64241],[139.7866,35.6495],[139.7869,35.64945],[139.78935,35.65111],[139.78967,35.65108],[139.79242,35.65293],[139.79095,35.65438],[139.79092,35.65464],[139.79183,35.65508],[139.79182,35.65527],[139.79091,35.65491],[139.79069,35.65635],[139.78853,35.65618],[139.78019,35.65054],[139.77951,35.65058],[139.77274,35.64604],[139.76949,35.64927],[139.76982,35.64949],[139.76989,35.64941],[139.77272,35.65145],[139.77177,35.65245],[139.77163,35.65259],[139.76836,35.65037],[139.76765,35.65108],[139.76724,35.65521],[139.76809,35.65579],[139.76964,35.65426],[139.77065,35.65494],[139.76721,35.65812],[139.76476,35.65638],[139.76435,35.65591],[139.76454,35.65573],[139.7625,35.65188],[139.7613,35.65247],[139.76067,35.65095],[139.76081,35.65092],[139.75908,35.64541],[139.75908,35.64497],[139.76035,35.64498],[139.76043,35.63678],[139.75965,35.63678],[139.75887,35.63592],[139.75835,35.63575],[139.75886,35.63598],[139.7596,35.6368],[139.75879,35.63728],[139.75805,35.63638],[139.75875,35.6373],[139.75675,35.63839],[139.75618,35.63694],[139.7567,35.63841],[139.75553,35.63905],[139.7548,35.63888],[139.75307,35.63541],[139.75344,35.63527],[139.75306,35.63538],[139.75263,35.63442],[139.75192,35.6261],[139.75163,35.62596],[139.75161,35.62623],[139.7509,35.62619],[139.75093,35.62578],[139.75138,35.62585],[139.75028,35.62533],[139.75025,35.62482],[139.75023,35.62456],[139.75183,35.62475],[139.75168,35.62218],[139.75221,35.62212],[139.75217,35.62152],[139.75181,35.6215],[139.75161,35.62129],[139.75157,35.61834],[139.75049,35.60738],[139.75081,35.6073],[139.75072,35.60643],[139.7505,35.60582],[139.74845,35.60278],[139.74772,35.60272],[139.74764,35.60196],[139.74779,35.60173],[139.7475,35.60092],[139.74758,35.60017],[139.7472,35.59601],[139.74706,35.59601],[139.7471,35.59559],[139.74723,35.59558],[139.74696,35.59219],[139.74671,35.59219],[139.74663,35.59113],[139.74634,35.59063],[139.74671,35.58979],[139.74741,35.58952],[139.74785,35.58869],[139.7521,35.57896],[139.75169,35.57718],[139.75009,35.5767],[139.75005,35.5763],[139.74987,35.57619],[139.75056,35.57522],[139.75234,35.57562],[139.75409,35.57448],[139.75636,35.56907],[139.75601,35.56854],[139.75024,35.56738],[139.74978,35.56663],[139.75133,35.56503],[139.75143,35.5651],[139.75296,35.56338],[139.75267,35.56321],[139.7534,35.56225],[139.75473,35.56181],[139.75495,35.56155],[139.75527,35.5616],[139.75568,35.56273],[139.75859,35.56437],[139.76102,35.56316],[139.7631,35.5607],[139.76373,35.56046],[139.77069,35.56846],[139.771,35.56897],[139.78544,35.57056],[139.78597,35.5698],[139.78653,35.56991],[139.78622,35.56974],[139.78633,35.56911],[139.78741,35.56758],[139.78799,35.56776],[139.78776,35.56753],[139.788,35.56675],[139.78921,35.56506],[139.78972,35.56524],[139.78956,35.56502],[139.7898,35.56432],[139.79084,35.56293],[139.7912,35.56282],[139.79146,35.56295],[139.79139,35.56266],[139.79228,35.56091],[139.79273,35.56043],[139.79303,35.56056],[139.79285,35.56039],[139.79302,35.55996],[139.79428,35.55809],[139.7947,35.55823],[139.79454,35.55807],[139.7946,35.55786],[139.79584,35.55585],[139.79608,35.55576],[139.7964,35.5559],[139.79615,35.55571],[139.79625,35.55527],[139.7976,35.55336],[139.79807,35.55347],[139.79779,35.55334],[139.79792,35.55291],[139.79922,35.55112],[139.79963,35.55119],[139.79944,35.5508],[139.80075,35.54894],[139.80107,35.54875],[139.80133,35.54888],[139.80111,35.54867],[139.80126,35.5483],[139.80396,35.54603],[139.80783,35.54059],[139.80816,35.5406],[139.8085,35.54027],[139.80918,35.53902],[139.8091,35.53862],[139.80859,35.53827],[139.80738,35.53767],[139.80624,35.53752],[139.80358,35.53635],[139.80312,35.53613],[139.80323,35.53597],[139.80097,35.53491],[139.80077,35.53502],[139.7949,35.53213],[139.78762,35.53431],[139.7877,35.53444],[139.78654,35.5358],[139.78522,35.53516],[139.78442,35.53538],[139.78196,35.53883],[139.77879,35.537],[139.7765,35.53447],[139.76808,35.53934],[139.76191,35.54202],[139.75685,35.5445],[139.75008,35.54458],[139.74932,35.54449],[139.74787,35.54398],[139.74678,35.54383],[139.74475,35.544],[139.74213,35.54483],[139.7396,35.54516],[139.73747,35.54423],[139.73495,35.54122],[139.73429,35.5409],[139.73365,35.54087],[139.73303,35.54101],[139.73074,35.54276],[139.73036,35.54291],[139.72761,35.54357],[139.72656,35.54357],[139.72522,35.54309],[139.72295,35.54187],[139.72111,35.54055],[139.71951,35.53912],[139.7182,35.5383],[139.7173,35.538],[139.71075,35.53654],[139.70901,35.53638],[139.70479,35.53629],[139.70223,35.53703],[139.70074,35.53777],[139.69993,35.53836],[139.69883,35.53975],[139.69794,35.54145],[139.69776,35.54376],[139.69794,35.54466],[139.69845,35.5454],[139.70148,35.54802],[139.70302,35.54892],[139.70353,35.54941],[139.70407,35.55047],[139.70423,35.55117],[139.70418,35.55183],[139.70374,35.55261],[139.70267,35.55368],[139.70088,35.55489],[139.69829,35.55597],[139.69668,35.5563],[139.69136,35.55675],[139.68962,35.55729],[139.68609,35.55937],[139.68381,35.56016],[139.68155,35.56119],[139.67879,35.56299],[139.6771,35.56504],[139.67599,35.56688],[139.67126,35.57852],[139.67082,35.58045],[139.66931,35.58472],[139.66729,35.58718],[139.66449,35.58952],[139.66333,35.58987],[139.6599,35.58967],[139.65987,35.58951],[139.6588,35.58943],[139.65864,35.58979],[139.65629,35.58973],[139.65523,35.59009],[139.65105,35.59223],[139.65011,35.59291],[139.64877,35.59504],[139.64692,35.59597],[139.63976,35.60022],[139.637,35.60305],[139.63518,35.60346],[139.6318,35.60579],[139.63175,35.60612],[139.63212,35.60656],[139.63185,35.60683],[139.6294,35.60797],[139.62861,35.60822],[139.62853,35.608],[139.62723,35.60895],[139.62544,35.60941],[139.6248,35.60984],[139.62372,35.61116],[139.62148,35.61207],[139.61852,35.61379],[139.61794,35.61388],[139.61558,35.61333],[139.61421,35.61421],[139.61312,35.61469],[139.6127,35.61539],[139.61219,35.61585],[139.60967,35.61641],[139.60876,35.61644],[139.60684,35.61553],[139.60607,35.61544],[139.60535,35.61557],[139.59984,35.61846],[139.59662,35.6185],[139.5956,35.61836],[139.5931,35.61757],[139.59189,35.61771],[139.58883,35.61901],[139.58639,35.62046],[139.58499,35.62102],[139.58279,35.6216],[139.58118,35.62166],[139.57973,35.62206],[139.57843,35.62178],[139.57655,35.62198],[139.57365,35.62313],[139.57112,35.62441],[139.56932,35.62594],[139.56793,35.62684],[139.56563,35.6272],[139.56616,35.62954],[139.56571,35.62993],[139.56266,35.63139],[139.56271,35.63211],[139.56251,35.63238],[139.56,35.63331],[139.55743,35.63399],[139.55511,35.63422],[139.55104,35.63408],[139.54943,35.63437],[139.54772,35.63669],[139.54623,35.6369],[139.54596,35.63742],[139.54453,35.63748],[139.54142,35.63823],[139.5404,35.63873],[139.53595,35.63948],[139.53463,35.64019],[139.53216,35.64117],[139.53089,35.64196],[139.5279,35.64222],[139.52573,35.64265],[139.52539,35.64265],[139.52428,35.64153],[139.52393,35.6399],[139.52307,35.63849],[139.52207,35.63753],[139.52099,35.63776],[139.52118,35.63677],[139.52181,35.63644],[139.52211,35.63457],[139.52236,35.63422],[139.52339,35.63354],[139.52358,35.63302],[139.52349,35.63239],[139.52312,35.63211],[139.52059,35.63143],[139.52031,35.63124],[139.5197,35.63155],[139.51953,35.63142],[139.519,35.63142],[139.51844,35.6306],[139.51756,35.63069],[139.51727,35.63052],[139.5166,35.62959],[139.51696,35.62789],[139.5168,35.62718],[139.51608,35.62562],[139.51458,35.62473],[139.51194,35.62429],[139.5104,35.62335],[139.50974,35.62402],[139.50929,35.6241],[139.50843,35.6238],[139.50744,35.62366],[139.50655,35.62324],[139.50608,35.62282],[139.5053,35.62298],[139.50342,35.62286],[139.50295,35.62219],[139.50232,35.62193],[139.50113,35.62174],[139.4994,35.6204],[139.4979,35.61832],[139.49705,35.61823],[139.49622,35.61775],[139.49468,35.61729],[139.49442,35.61656],[139.49436,35.6157],[139.49512,35.61447],[139.49528,35.61325],[139.49578,35.61236],[139.49692,35.61124],[139.49753,35.61031],[139.49861,35.60922],[139.49898,35.60837],[139.49982,35.60765],[139.50002,35.60728],[139.49974,35.60545],[139.49881,35.60547],[139.49757,35.60487],[139.49719,35.60508],[139.4968,35.60493],[139.49559,35.60549],[139.49467,35.60551],[139.49364,35.60582],[139.49272,35.60571],[139.49122,35.60523],[139.48977,35.60434],[139.48929,35.60441],[139.48866,35.60578],[139.48841,35.60687],[139.48791,35.60769],[139.48655,35.60843],[139.48326,35.60871],[139.48237,35.60969],[139.4814,35.60999],[139.48112,35.61023],[139.48048,35.61171],[139.48008,35.6122],[139.47993,35.61303],[139.47966,35.61326],[139.47815,35.61376],[139.47695,35.61302],[139.47634,35.61306],[139.47604,35.61324],[139.47666,35.61393],[139.47674,35.61505],[139.47599,35.61762],[139.47595,35.61826],[139.47633,35.61863],[139.47547,35.6197],[139.47507,35.61998],[139.47414,35.61967],[139.47242,35.61975],[139.47074,35.61996],[139.47013,35.62019],[139.46759,35.62063],[139.46586,35.62238],[139.46602,35.62282],[139.46546,35.62398],[139.46278,35.62505],[139.46216,35.62488],[139.46074,35.62216],[139.45916,35.62095],[139.45833,35.62052],[139.45778,35.61964],[139.45704,35.6191],[139.45614,35.619],[139.45516,35.61809],[139.45393,35.61827],[139.45357,35.61809],[139.45317,35.61861],[139.45302,35.61856],[139.45233,35.61679],[139.45241,35.61578],[139.45143,35.61507],[139.45083,35.61404],[139.45072,35.61318],[139.44928,35.61178],[139.4499,35.61077],[139.45119,35.60979],[139.45162,35.60858],[139.45287,35.60768],[139.45252,35.60672],[139.45352,35.60448],[139.45515,35.60516],[139.45738,35.60721],[139.45792,35.60748],[139.45927,35.60759],[139.46063,35.60841],[139.4626,35.60799],[139.46307,35.60803],[139.46326,35.60821],[139.46327,35.60879],[139.4638,35.60916],[139.46439,35.60914],[139.46504,35.60875],[139.46531,35.60891],[139.46559,35.60954],[139.46605,35.6095],[139.46667,35.60863],[139.46647,35.60673],[139.46844,35.60482],[139.47028,35.60349],[139.47032,35.60276],[139.47092,35.60179],[139.47106,35.60116],[139.47208,35.6007],[139.47282,35.60013],[139.47397,35.5997],[139.47658,35.59963],[139.47802,35.59897],[139.47839,35.5984],[139.47904,35.59631],[139.47964,35.59509],[139.47973,35.59536],[139.47949,35.59589],[139.48058,35.59599],[139.48078,35.59574],[139.48083,35.59551],[139.48025,35.59539],[139.48016,35.59487],[139.4803,35.59469],[139.48126,35.59485],[139.48189,35.59537],[139.48293,35.59487],[139.48356,35.59525],[139.48391,35.5953],[139.48393,35.59506],[139.48328,35.59422],[139.4834,35.59364],[139.48318,35.59341],[139.48337,35.59339],[139.48379,35.59386],[139.48454,35.59416],[139.48466,35.5937],[139.48426,35.59282],[139.48512,35.59292],[139.48542,35.59223],[139.48578,35.59191],[139.48631,35.59165],[139.4871,35.59172],[139.48693,35.59045],[139.48712,35.59002],[139.48741,35.59028],[139.48759,35.59083],[139.48788,35.59095],[139.48863,35.59072],[139.48815,35.59028],[139.48823,35.58995],[139.48918,35.59014],[139.48916,35.58991],[139.48981,35.58973],[139.49069,35.58899],[139.49119,35.58937],[139.49144,35.58892],[139.49184,35.58907],[139.49199,35.58897],[139.49183,35.58855],[139.49193,35.58847],[139.49243,35.58858],[139.49288,35.58914],[139.49368,35.58908],[139.49393,35.58861],[139.49359,35.58793],[139.49361,35.58761],[139.49399,35.58658],[139.49446,35.58624],[139.49348,35.58538],[139.4931,35.58428],[139.49317,35.58415],[139.4935,35.58427],[139.49375,35.58416],[139.4936,35.58353],[139.49385,35.58327],[139.49394,35.58273],[139.49437,35.58293],[139.49466,35.58289],[139.49483,35.58256],[139.49532,35.58269],[139.4966,35.58156],[139.49715,35.5815],[139.49741,35.58209],[139.49922,35.58097],[139.50062,35.57914],[139.50226,35.57822],[139.50218,35.57746],[139.50236,35.57706],[139.50367,35.5767],[139.50546,35.57479],[139.5069,35.57582],[139.50717,35.57531],[139.50757,35.57524],[139.50754,35.57503],[139.50689,35.57485],[139.50727,35.57454],[139.50735,35.57377],[139.50645,35.5716],[139.50561,35.57123],[139.50483,35.57159],[139.50434,35.57161],[139.50321,35.57124],[139.50205,35.5711],[139.50041,35.5702]],[[139.84567,35.65806],[139.84568,35.65828],[139.84554,35.65672],[139.84567,35.65806]],[[139.75,35.62473],[139.7499,35.62469],[139.74927,35.62445],[139.74915,35.62441],[139.74677,35.62324],[139.75025,35.62482],[139.75,35.62473]],[[139.74443,35.62339],[139.74602,35.62311],[139.74622,35.62312],[139.74443,35.62339]],[[139.74277,35.62507],[139.74258,35.62504],[139.74319,35.62512],[139.74277,35.62507]],[[139.38082,35.5905],[139.38085,35.59032],[139.38093,35.59029],[139.3811,35.59056],[139.38082,35.5905]],[[139.7197,35.64142],[139.71973,35.64143],[139.71953,35.64159],[139.71943,35.64167],[139.7197,35.64142]],[[139.71783,35.64037],[139.7177,35.64024],[139.71776,35.64029],[139.71783,35.64037]],[[139.71676,35.63963],[139.71669,35.63908],[139.71669,35.63907],[139.71669,35.63904],[139.71669,35.63899],[139.71668,35.63826],[139.71684,35.6399],[139.71676,35.63963]],[[139.71693,35.63809],[139.7172,35.63795],[139.71668,35.63826],[139.71693,35.63809]],[[139.72049,35.63489],[139.7202,35.63473],[139.72007,35.63464],[139.72049,35.63489]],[[139.72079,35.63496],[139.72086,35.63496],[139.72103,35.63497],[139.7212,35.63499],[139.72067,35.63496],[139.72066,35.63496],[139.72058,35.63494],[139.72079,35.63496]],[[139.72127,35.63502],[139.72129,35.63505],[139.7212,35.63499],[139.72127,35.63502]],[[139.72648,35.63333],[139.72641,35.63317],[139.72633,35.63286],[139.72685,35.63426],[139.72648,35.63333]],[[139.72693,35.63212],[139.72698,35.6321],[139.7271,35.63205],[139.72749,35.63193],[139.72764,35.63189],[139.72767,35.6319],[139.72773,35.6319],[139.72672,35.63221],[139.72693,35.63212]],[[139.7287,35.63208],[139.72874,35.63182],[139.72886,35.63265],[139.7287,35.63208]],[[139.72883,35.63165],[139.72887,35.63162],[139.72913,35.63137],[139.72931,35.6312],[139.72874,35.63182],[139.72883,35.63165]],[[139.73086,35.63041],[139.73035,35.63096],[139.72999,35.63121],[139.72987,35.6313],[139.72962,35.63147],[139.73086,35.63041]],[[139.73115,35.62669],[139.73114,35.6266],[139.73133,35.62707],[139.73115,35.62669]],[[139.73115,35.62648],[139.73118,35.6264],[139.73123,35.62633],[139.73114,35.6266],[139.73115,35.62648]],[[139.73132,35.62627],[139.73138,35.62624],[139.73155,35.62621],[139.73181,35.62611],[139.73184,35.6261],[139.7321,35.62603],[139.73235,35.62599],[139.73123,35.62633],[139.73132,35.62627]],[[139.73267,35.62598],[139.73287,35.62598],[139.73333,35.62604],[139.73338,35.62604],[139.73395,35.62611],[139.73235,35.62599],[139.73267,35.62598]],[[139.73856,35.62455],[139.7384,35.62456],[139.73798,35.62456],[139.73779,35.62453],[139.73759,35.62443],[139.73856,35.62455]],[[139.76745,35.70117],[139.76741,35.70113],[139.76787,35.70097],[139.76745,35.70117]],[[139.7701,35.70452],[139.7701,35.70459],[139.77011,35.70469],[139.77013,35.70519],[139.76989,35.70337],[139.7701,35.70452]],[[139.71656,35.67343],[139.71698,35.67256],[139.71682,35.67292],[139.71656,35.67343]],[[139.71962,35.67666],[139.71978,35.67575],[139.71995,35.67532],[139.71962,35.67666]],[[139.72047,35.67902],[139.72014,35.67881],[139.71993,35.67868],[139.7199,35.6786],[139.71986,35.67841],[139.72047,35.67902]],[[139.72318,35.67906],[139.72317,35.67903],[139.72327,35.67856],[139.72318,35.67906]],[[139.72751,35.68081],[139.72691,35.67966],[139.7268,35.67942],[139.72675,35.67929],[139.72751,35.68081]],[[139.72758,35.68106],[139.72764,35.68143],[139.72751,35.68081],[139.72758,35.68106]],[[139.72771,35.68164],[139.72768,35.68157],[139.72829,35.68257],[139.72771,35.68164]],[[139.73058,35.68333],[139.73056,35.68336],[139.73075,35.68288],[139.731,35.68236],[139.7312,35.68198],[139.7315,35.6815],[139.73058,35.68333]],[[139.73027,35.68451],[139.73001,35.68538],[139.73017,35.6847],[139.73048,35.68355],[139.73027,35.68451]],[[139.73016,35.68592],[139.73025,35.68632],[139.73026,35.68645],[139.73,35.68554],[139.73016,35.68592]],[[139.71961,35.64216],[139.71969,35.64225],[139.72003,35.64271],[139.71961,35.64216]],[[139.72254,35.65046],[139.72263,35.64999],[139.72271,35.64969],[139.72295,35.64878],[139.72303,35.64847],[139.72312,35.64823],[139.72328,35.64779],[139.72254,35.65046]],[[139.72242,35.65221],[139.72241,35.65233],[139.72249,35.65105],[139.72242,35.65221]],[[139.72155,35.65374],[139.72156,35.65362],[139.72181,35.65249],[139.72155,35.65374]],[[139.72256,35.65556],[139.72206,35.65486],[139.72157,35.65383],[139.72155,35.65374],[139.72256,35.65556]],[[139.7227,35.65581],[139.72273,35.65587],[139.72276,35.65593],[139.72279,35.65608],[139.7227,35.65581]],[[139.71847,35.65683],[139.72016,35.65623],[139.72172,35.65568],[139.72197,35.6556],[139.71847,35.65683]],[[139.72204,35.6556],[139.7221,35.6556],[139.72216,35.65562],[139.72221,35.65566],[139.72197,35.6556],[139.72204,35.6556]],[[139.71459,35.65728],[139.71475,35.65722],[139.71578,35.65699],[139.71625,35.65694],[139.71649,35.65692],[139.71667,35.6569],[139.71673,35.6569],[139.71459,35.65728]],[[139.71394,35.65782],[139.71367,35.65802],[139.71446,35.65735],[139.71394,35.65782]],[[139.71297,35.65855],[139.71328,35.65891],[139.71371,35.65957],[139.71297,35.65855]],[[139.71183,35.66103],[139.71216,35.66073],[139.7124,35.66059],[139.7128,35.66034],[139.71283,35.66032],[139.71327,35.66005],[139.71379,35.65976],[139.71183,35.66103]],[[139.71155,35.66137],[139.71023,35.6629],[139.71183,35.66103],[139.71155,35.66137]],[[139.71003,35.66307],[139.71002,35.66308],[139.70996,35.66314],[139.70856,35.66407],[139.71023,35.6629],[139.71003,35.66307]],[[139.71087,35.66624],[139.71095,35.66629],[139.71101,35.66637],[139.71128,35.66667],[139.71087,35.66624]],[[139.71286,35.66831],[139.71267,35.66811],[139.71165,35.66697],[139.71286,35.66831]],[[139.71451,35.67185],[139.71453,35.67189],[139.71454,35.67192],[139.71458,35.67201],[139.71424,35.67143],[139.71451,35.67185]],[[139.71466,35.67262],[139.71456,35.67255],[139.71451,35.67247],[139.71466,35.67262]],[[139.73096,35.68847],[139.73102,35.68863],[139.73109,35.68894],[139.73085,35.68829],[139.73079,35.6881],[139.73076,35.68788],[139.73096,35.68847]],[[139.73038,35.68697],[139.73028,35.68671],[139.73067,35.68754],[139.73038,35.68697]],[[139.74206,35.69892],[139.74167,35.69847],[139.74167,35.69846],[139.7416,35.69839],[139.73998,35.69629],[139.73946,35.69554],[139.74238,35.6993],[139.74206,35.69892]],[[139.74376,35.7017],[139.74369,35.70163],[139.74373,35.7016],[139.74412,35.70127],[139.74376,35.7017]],[[139.74374,35.70085],[139.74347,35.70052],[139.74412,35.70127],[139.74374,35.70085]]],[[[139.51826,35.62967],[139.51828,35.62923],[139.51759,35.62953],[139.51708,35.62941],[139.51722,35.62983],[139.51787,35.62983],[139.51826,35.62967]]],[[[139.75332,35.5625],[139.75313,35.56271],[139.75331,35.56282],[139.7535,35.5626],[139.75332,35.5625]]],[[[139.75714,35.5715],[139.75736,35.57287],[139.75714,35.57281],[139.75717,35.573],[139.75736,35.5729],[139.75761,35.57446],[139.76158,35.57445],[139.76158,35.57482],[139.76167,35.57464],[139.76174,35.57491],[139.76173,35.57445],[139.76328,35.57447],[139.76332,35.57468],[139.76353,35.57451],[139.76361,35.57482],[139.76361,35.57444],[139.7638,35.57444],[139.76381,35.57473],[139.76414,35.5746],[139.76415,35.57515],[139.76423,35.57491],[139.76456,35.57491],[139.76456,35.57509],[139.76533,35.57509],[139.76518,35.57504],[139.76533,35.57491],[139.76543,35.5751],[139.76643,35.57509],[139.76643,35.5749],[139.77353,35.57492],[139.77379,35.57458],[139.77246,35.57276],[139.77223,35.57261],[139.77234,35.5728],[139.77217,35.57279],[139.76561,35.5649],[139.75848,35.56844],[139.75714,35.5715]]],[[[139.75158,35.58393],[139.74932,35.58913],[139.74993,35.5894],[139.75011,35.58965],[139.75004,35.59035],[139.75017,35.5907],[139.74986,35.59097],[139.75009,35.59103],[139.75018,35.59135],[139.74943,35.59213],[139.74872,35.59217],[139.7487,35.59197],[139.74843,35.59193],[139.74833,35.59208],[139.74869,35.5936],[139.74854,35.59428],[139.749,35.60073],[139.75167,35.60469],[139.75302,35.61765],[139.75636,35.61766],[139.75637,35.61701],[139.7569,35.61701],[139.75695,35.61751],[139.75695,35.61699],[139.75745,35.61699],[139.75744,35.61767],[139.758,35.61767],[139.76028,35.6158],[139.75978,35.6154],[139.75989,35.61518],[139.76014,35.61536],[139.76047,35.61505],[139.76025,35.61486],[139.76052,35.61475],[139.76096,35.61509],[139.76146,35.61456],[139.76195,35.61465],[139.76388,35.60892],[139.76348,35.60872],[139.77321,35.59568],[139.77288,35.59551],[139.77678,35.59029],[139.77377,35.58752],[139.77361,35.58764],[139.77321,35.58728],[139.77289,35.58752],[139.76906,35.58401],[139.77289,35.58747],[139.77324,35.58722],[139.77318,35.58687],[139.77356,35.58652],[139.77549,35.58518],[139.77601,35.58563],[139.77557,35.58512],[139.77634,35.58583],[139.77716,35.58523],[139.77783,35.58584],[139.77744,35.58616],[139.77786,35.58587],[139.77853,35.58648],[139.77771,35.58708],[139.7778,35.58716],[139.78142,35.58454],[139.78177,35.58448],[139.78402,35.58605],[139.78183,35.58443],[139.78255,35.58371],[139.7829,35.58403],[139.78334,35.58372],[139.78303,35.58344],[139.78704,35.58046],[139.78696,35.58038],[139.78741,35.58006],[139.78727,35.57902],[139.78733,35.57969],[139.7866,35.57965],[139.78614,35.57928],[139.78497,35.57763],[139.78514,35.57725],[139.78408,35.57716],[139.78377,35.57719],[139.78366,35.57735],[139.78342,35.57706],[139.76667,35.57714],[139.76665,35.57816],[139.76641,35.57828],[139.76653,35.57854],[139.76689,35.57881],[139.76787,35.57872],[139.77041,35.58106],[139.76937,35.58016],[139.76912,35.5801],[139.7678,35.58122],[139.76781,35.58152],[139.76746,35.58139],[139.76532,35.57943],[139.76511,35.57957],[139.76528,35.57932],[139.76441,35.57856],[139.76403,35.57802],[139.76378,35.5781],[139.76378,35.57795],[139.76349,35.57798],[139.76248,35.57716],[139.75587,35.57707],[139.7552,35.57745],[139.75529,35.57753],[139.75509,35.57767],[139.75501,35.57758],[139.75435,35.57801],[139.75407,35.57834],[139.75177,35.5838],[139.75158,35.58393]]],[[[139.74964,35.59142],[139.74965,35.59135],[139.74943,35.59153],[139.74964,35.59142]]],[[[139.80583,35.58545],[139.79343,35.5928],[139.80378,35.59842],[139.81171,35.58864],[139.80583,35.58545]]],[[[139.79036,35.60639],[139.79032,35.60644],[139.79038,35.60647],[139.79036,35.60639]]],[[[139.77281,35.61472],[139.77214,35.61555],[139.77218,35.61557],[139.77281,35.61472]]],[[[139.77317,35.6185],[139.77299,35.6184],[139.77289,35.61853],[139.77425,35.61927],[139.77344,35.62027],[139.77063,35.61874],[139.76844,35.62119],[139.76878,35.62146],[139.76848,35.62172],[139.76817,35.62149],[139.76766,35.62208],[139.76759,35.62579],[139.76907,35.62662],[139.76898,35.62693],[139.76932,35.62674],[139.77069,35.62746],[139.77134,35.62827],[139.77217,35.62826],[139.77404,35.62937],[139.77394,35.6299],[139.77404,35.62974],[139.77425,35.62979],[139.77624,35.63102],[139.77717,35.63142],[139.77716,35.63211],[139.77662,35.63306],[139.77556,35.63434],[139.77478,35.63483],[139.77322,35.63395],[139.77266,35.63257],[139.77086,35.63307],[139.77137,35.63433],[139.77152,35.63438],[139.77136,35.63465],[139.77155,35.6344],[139.77245,35.63427],[139.77253,35.63451],[139.77313,35.63441],[139.77653,35.63626],[139.77676,35.63596],[139.77701,35.63609],[139.78495,35.62635],[139.78466,35.62586],[139.78099,35.62388],[139.79263,35.60958],[139.79085,35.6072],[139.79011,35.60681],[139.79034,35.60652],[139.78705,35.6021],[139.78684,35.60227],[139.78701,35.60207],[139.78691,35.60193],[139.78673,35.60184],[139.77713,35.61362],[139.77747,35.6138],[139.77702,35.61378],[139.77678,35.61408],[139.77438,35.61279],[139.77674,35.61412],[139.7751,35.61613],[139.77389,35.61555],[139.77506,35.61618],[139.77462,35.61671],[139.77345,35.61613],[139.7746,35.61675],[139.77317,35.6185]],[[139.7736,35.62031],[139.77199,35.62229],[139.77231,35.62188],[139.7736,35.62031]]],[[[139.75733,35.61764],[139.75689,35.61764],[139.75689,35.61768],[139.75733,35.61764]]],[[[139.78988,35.62762],[139.79573,35.62043],[139.79551,35.62024],[139.79674,35.61917],[139.79654,35.61899],[139.79792,35.61773],[139.79742,35.61704],[139.79701,35.61718],[139.79604,35.61526],[139.7957,35.61538],[139.79484,35.61377],[139.79438,35.61394],[139.78529,35.62513],[139.78988,35.62762]]],[[[139.75975,35.61935],[139.75939,35.61935],[139.7594,35.61904],[139.75321,35.619],[139.75331,35.6214],[139.75287,35.62142],[139.75292,35.62214],[139.75336,35.62212],[139.75401,35.63092],[139.75524,35.63363],[139.75618,35.63372],[139.75701,35.63361],[139.75692,35.63372],[139.75723,35.63373],[139.75716,35.63362],[139.75785,35.63362],[139.75801,35.6338],[139.75804,35.63362],[139.75923,35.63365],[139.75975,35.61935]]],[[[139.77122,35.62848],[139.7713,35.62843],[139.77116,35.62838],[139.77122,35.62848]]],[[[139.76811,35.62956],[139.76816,35.6294],[139.76647,35.62733],[139.76613,35.62728],[139.76607,35.6276],[139.76773,35.6297],[139.76811,35.62956]]],[[[139.7699,35.63171],[139.76854,35.62999],[139.76812,35.63013],[139.76979,35.63236],[139.77018,35.63232],[139.77017,35.63205],[139.77046,35.63169],[139.77028,35.63181],[139.7699,35.63171]]],[[[139.76731,35.63416],[139.76753,35.63398],[139.76724,35.6332],[139.76654,35.63293],[139.76557,35.6332],[139.76601,35.63423],[139.76626,35.63433],[139.76731,35.63416]]],[[[139.75852,35.63373],[139.75841,35.63373],[139.75841,35.6338],[139.75852,35.63373]]],[[[139.75619,35.63693],[139.75623,35.63692],[139.75621,35.63689],[139.75619,35.63693]]],[[[139.78227,35.63938],[139.78984,35.6435],[139.79019,35.64343],[139.79014,35.64313],[139.78254,35.63902],[139.78226,35.63905],[139.78227,35.63938]]],[[[139.79093,35.64409],[139.79646,35.64708],[139.79684,35.64707],[139.79688,35.64687],[139.79669,35.64668],[139.79125,35.64373],[139.79091,35.64378],[139.79093,35.64409]]],[[[139.8198,35.54238],[139.82309,35.54384],[139.82603,35.54157],[139.81096,35.5282],[139.80709,35.53111],[139.8198,35.54238]]],[[[139.8056,35.59941],[139.82021,35.60734],[139.82026,35.60749],[139.82706,35.59694],[139.81355,35.58966],[139.8056,35.59941]]],[[[139.7906,35.59253],[139.79149,35.59395],[139.79026,35.59545],[139.79142,35.597],[139.79114,35.59713],[139.79413,35.60114],[139.7944,35.601],[139.79521,35.60151],[139.79499,35.60178],[139.79619,35.60339],[139.7959,35.60353],[139.79855,35.60707],[139.79895,35.60687],[139.7995,35.60705],[139.80003,35.60746],[139.81059,35.61318],[139.81894,35.60888],[139.7916,35.59396],[139.79062,35.59241],[139.79044,35.59249],[139.7906,35.59253]]],[[[139.81109,35.62751],[139.81094,35.62852],[139.811,35.62853],[139.81097,35.62871],[139.81102,35.62851],[139.811,35.62851],[139.81111,35.62751],[139.82085,35.62845],[139.82076,35.62882],[139.82088,35.62845],[139.82196,35.62853],[139.80725,35.62713],[139.81109,35.62751]]],[[[139.81155,35.6298],[139.81154,35.62982],[139.81374,35.63003],[139.81155,35.6298]]],[[[139.81396,35.63005],[139.81593,35.63024],[139.81593,35.63022],[139.81396,35.63005]]],[[[139.8104,35.63074],[139.81042,35.63074],[139.81057,35.62971],[139.8104,35.63074]]],[[[139.81615,35.63026],[139.81813,35.63043],[139.81667,35.63029],[139.81615,35.63026]]],[[[139.81835,35.63045],[139.81834,35.63047],[139.81944,35.63058],[139.81835,35.63045]]],[[[139.81067,35.63097],[139.81097,35.62873],[139.81062,35.63076],[139.81068,35.63077],[139.8106,35.63094],[139.8103,35.633],[139.81035,35.633],[139.81067,35.63097]]],[[[139.81008,35.63298],[139.8101,35.63298],[139.8104,35.63092],[139.81008,35.63298]]],[[[139.81125,35.63206],[139.81342,35.63226],[139.81343,35.63225],[139.81125,35.63206]]],[[[139.81364,35.63227],[139.81363,35.63228],[139.81561,35.63247],[139.81364,35.63227]]],[[[139.81583,35.63248],[139.81582,35.63249],[139.81781,35.63268],[139.81583,35.63248]]],[[[139.81802,35.63269],[139.81802,35.6327],[139.82022,35.63292],[139.81802,35.63269]]],[[[139.81034,35.63321],[139.81038,35.63298],[139.81027,35.63318],[139.80998,35.63521],[139.81034,35.63321]]],[[[139.81005,35.63316],[139.80976,35.63522],[139.80978,35.63523],[139.81005,35.63316]]],[[[139.8131,35.63448],[139.8109,35.63428],[139.8109,35.6343],[139.8131,35.63448]]],[[[139.81332,35.6345],[139.81332,35.63452],[139.81529,35.63471],[139.81332,35.6345]]],[[[139.81551,35.63471],[139.81551,35.63474],[139.81748,35.63493],[139.81551,35.63471]]],[[[139.8177,35.63495],[139.8199,35.63514],[139.81796,35.63495],[139.8177,35.63495]]],[[[139.80998,35.63522],[139.80998,35.63525],[139.81003,35.63525],[139.80998,35.63522]]],[[[139.80973,35.63558],[139.80971,35.63558],[139.80948,35.63715],[139.80973,35.63558]]],[[[139.8097,35.63717],[139.80976,35.63718],[139.80973,35.63715],[139.80992,35.63561],[139.8097,35.63717]]],[[[139.81059,35.63652],[139.81058,35.63654],[139.81167,35.63664],[139.81059,35.63652]]],[[[139.81189,35.63666],[139.81277,35.63674],[139.81277,35.63672],[139.81189,35.63666]]],[[[139.81299,35.63674],[139.81299,35.63676],[139.81387,35.63685],[139.81299,35.63674]]],[[[139.81409,35.63685],[139.81409,35.63687],[139.81497,35.63695],[139.81409,35.63685]]],[[[139.81519,35.63696],[139.81519,35.63698],[139.81606,35.63706],[139.81519,35.63696]]],[[[139.81628,35.63708],[139.81716,35.63716],[139.81716,35.63714],[139.81628,35.63708]]],[[[139.81738,35.63719],[139.81826,35.63725],[139.81738,35.63717],[139.81738,35.63719]]],[[[139.81848,35.63727],[139.81847,35.63729],[139.81957,35.63739],[139.81848,35.63727]]],[[[139.80931,35.63836],[139.80933,35.63836],[139.80945,35.63751],[139.80931,35.63836]]],[[[139.80965,35.63753],[139.80953,35.63838],[139.80988,35.63874],[139.81845,35.63956],[139.8189,35.63927],[139.81844,35.63953],[139.80989,35.63872],[139.80956,35.63837],[139.80965,35.63753]]],[[[139.81882,35.63924],[139.81883,35.63925],[139.81904,35.6391],[139.81882,35.63924]]],[[[139.82442,35.61007],[139.82432,35.60994],[139.81916,35.60899],[139.82442,35.61007]]],[[[139.81769,35.61754],[139.81765,35.6176],[139.82192,35.61931],[139.81769,35.61754]]],[[[139.83245,35.61627],[139.83063,35.61849],[139.83294,35.61974],[139.83171,35.62124],[139.82941,35.61999],[139.82742,35.6198],[139.82585,35.6307],[139.83701,35.63177],[139.83711,35.63104],[139.83847,35.63117],[139.83849,35.63107],[139.83922,35.63125],[139.83911,35.63198],[139.84011,35.63207],[139.8386,35.61416],[139.83552,35.61249],[139.83249,35.61623],[139.82814,35.61198],[139.82812,35.61211],[139.83245,35.61627]]],[[[139.82079,35.62901],[139.82073,35.629],[139.82077,35.62904],[139.82073,35.6293],[139.82079,35.62901]]],[[[139.82843,35.63504],[139.82843,35.63502],[139.82772,35.63495],[139.82843,35.63504]]],[[[139.86016,35.63664],[139.86119,35.63713],[139.86225,35.63734],[139.86345,35.63729],[139.86514,35.63677],[139.867,35.63576],[139.86747,35.63519],[139.86752,35.63454],[139.86643,35.63295],[139.86587,35.63268],[139.86639,35.63305],[139.86736,35.63468],[139.86694,35.63469],[139.86652,35.63492],[139.86614,35.63541],[139.86571,35.6356],[139.86594,35.63587],[139.8656,35.63574],[139.86531,35.63581],[139.86506,35.63617],[139.8646,35.63631],[139.86447,35.63672],[139.86366,35.63588],[139.86317,35.6357],[139.8624,35.63608],[139.86174,35.63616],[139.86178,35.63665],[139.86107,35.63692],[139.85995,35.63626],[139.85833,35.63448],[139.85816,35.63459],[139.86016,35.63664]]],[[[139.82865,35.63506],[139.82939,35.63513],[139.82939,35.63511],[139.82865,35.63506]]],[[[139.82967,35.63514],[139.82966,35.63516],[139.8304,35.63523],[139.82967,35.63514]]],[[[139.83063,35.63523],[139.83062,35.63525],[139.83137,35.63532],[139.83063,35.63523]]],[[[139.86296,35.63559],[139.86301,35.63535],[139.86356,35.63532],[139.86361,35.63505],[139.86312,35.63491],[139.86243,35.63511],[139.86229,35.63541],[139.86266,35.63564],[139.86296,35.63559]]],[[[139.82627,35.63572],[139.82638,35.63496],[139.82655,35.63486],[139.82742,35.63492],[139.82654,35.63484],[139.82636,35.63495],[139.82627,35.63572]]],[[[139.8325,35.63543],[139.83264,35.63556],[139.83273,35.63634],[139.83267,35.63555],[139.83251,35.63541],[139.83164,35.63533],[139.8325,35.63543]]],[[[139.82611,35.63671],[139.82625,35.63686],[139.82715,35.63695],[139.82626,35.63684],[139.82613,35.6367],[139.82622,35.63595],[139.82611,35.63671]]],[[[139.82737,35.63695],[139.82737,35.63697],[139.82815,35.63702],[139.82737,35.63695]]],[[[139.83275,35.63657],[139.83279,35.63733],[139.83264,35.63745],[139.83132,35.63735],[139.83265,35.63747],[139.83282,35.63734],[139.83275,35.63657]]],[[[139.82836,35.63704],[139.82836,35.63706],[139.82913,35.63714],[139.82836,35.63704]]],[[[139.83012,35.63721],[139.82935,35.63714],[139.82935,35.63716],[139.83012,35.63721]]],[[[139.83033,35.63725],[139.8311,35.63732],[139.8311,35.63731],[139.83033,35.63725]]],[[[139.84954,35.63627],[139.8498,35.6393],[139.85035,35.64001],[139.85131,35.64039],[139.85218,35.64033],[139.85461,35.63939],[139.85563,35.63855],[139.85663,35.63852],[139.85822,35.63808],[139.8588,35.63768],[139.85906,35.63715],[139.85892,35.63646],[139.85749,35.63501],[139.85739,35.63517],[139.85869,35.63648],[139.85841,35.63689],[139.85747,35.63753],[139.85585,35.63809],[139.85359,35.63851],[139.85051,35.63858],[139.84991,35.63847],[139.84967,35.63573],[139.84954,35.63627]]],[[[139.83295,35.64036],[139.83277,35.63821],[139.82512,35.63746],[139.82556,35.63426],[139.8255,35.63448],[139.82116,35.63406],[139.82044,35.63906],[139.8201,35.63905],[139.82044,35.63908],[139.82296,35.64168],[139.82286,35.64232],[139.82613,35.64264],[139.82613,35.64283],[139.82616,35.64263],[139.82483,35.63958],[139.83295,35.64036]]],[[[139.81982,35.63897],[139.81981,35.63902],[139.81988,35.63903],[139.81982,35.63897]]],[[[139.8196,35.639],[139.81961,35.63896],[139.81935,35.63895],[139.81903,35.63912],[139.8196,35.639]]],[[[139.82819,35.6407],[139.82819,35.64068],[139.82742,35.6406],[139.82819,35.6407]]],[[[139.82918,35.64079],[139.82918,35.64077],[139.82841,35.6407],[139.82918,35.64079]]],[[[139.83017,35.64087],[139.8294,35.64079],[139.8294,35.64081],[139.83017,35.64087]]],[[[139.83115,35.64096],[139.83038,35.64089],[139.83038,35.6409],[139.83115,35.64096]]],[[[139.82621,35.64066],[139.82633,35.64052],[139.8272,35.64058],[139.82632,35.6405],[139.82618,35.64065],[139.82658,35.64146],[139.82621,35.64066]]],[[[139.83213,35.64107],[139.83214,35.64105],[139.83137,35.64098],[139.83213,35.64107]]],[[[139.83318,35.64201],[139.8332,35.64201],[139.83314,35.6413],[139.83301,35.64114],[139.83235,35.64108],[139.833,35.64116],[139.83318,35.64201]]],[[[139.82791,35.64252],[139.82698,35.64234],[139.82664,35.64164],[139.82696,35.64235],[139.82791,35.64252]]],[[[139.82892,35.64262],[139.82818,35.64254],[139.82817,35.64256],[139.82892,35.64262]]],[[[139.83326,35.6429],[139.8331,35.64302],[139.83208,35.64294],[139.83311,35.64304],[139.83328,35.64291],[139.83322,35.64221],[139.83326,35.6429]]],[[[139.82988,35.64273],[139.82988,35.64271],[139.82914,35.64264],[139.82988,35.64273]]],[[[139.83089,35.6428],[139.83015,35.64274],[139.83015,35.64275],[139.83089,35.6428]]],[[[139.83185,35.6429],[139.83111,35.64283],[139.83111,35.64284],[139.83185,35.6429]]]]}}]}