{"type":"FeatureCollection","features":[{"type":"Feature","properties":{},"geometry":{"type":"MultiPolygon","coordinates":[[[[139.38146,35.77726],[139.37988,35.77701],[139.38014,35.77875],[139.37756,35.77996],[139.3753,35.78042],[139.37104,35.77821],[139.37027,35.77829],[139.37044,35.77877],[139.37146,35.77881],[139.37301,35.77972],[139.37173,35.78039],[139.37145,35.7816],[139.36991,35.78154],[139.3699,35.78261],[139.36767,35.78416],[139.36719,35.7856],[139.36815,35.78606],[139.36783,35.78704],[139.36987,35.78761],[139.36871,35.79029],[139.37026,35.7909],[139.36992,35.79173],[139.35984,35.79162],[139.35889,35.79193],[139.35857,35.79298],[139.35665,35.79348],[139.35492,35.79372],[139.35355,35.79327],[139.35349,35.79287],[139.35271,35.7935],[139.35066,35.79327],[139.34971,35.79491],[139.34787,35.79525],[139.34761,35.79602],[139.34686,35.79641],[139.34335,35.7947],[139.34288,35.79403],[139.3385,35.79459],[139.33667,35.79377],[139.33488,35.7937],[139.33278,35.79189],[139.33037,35.79362],[139.33036,35.79434],[139.32517,35.79559],[139.32225,35.7995],[139.32262,35.80027],[139.31909,35.80698],[139.31802,35.81042],[139.31679,35.81147],[139.31675,35.81269],[139.31502,35.81427],[139.31505,35.81689],[139.3165,35.81936],[139.31616,35.82367],[139.31492,35.82524],[139.31214,35.82545],[139.30477,35.8224],[139.30486,35.82387],[139.30244,35.82421],[139.30269,35.82601],[139.30205,35.82856],[139.30117,35.82969],[139.30176,35.83109],[139.30139,35.83394],[139.30208,35.83413],[139.30117,35.83496],[139.30005,35.83516],[139.29975,35.83478],[139.29662,35.83545],[139.2956,35.83385],[139.29091,35.83796],[139.28656,35.83707],[139.28494,35.83601],[139.28288,35.83717],[139.28168,35.83976],[139.28026,35.84069],[139.27992,35.83925],[139.27841,35.8396],[139.27152,35.83968],[139.26824,35.83824],[139.26312,35.83731],[139.26043,35.83599],[139.25889,35.83639],[139.2588,35.83727],[139.25669,35.83707],[139.25642,35.83777],[139.25226,35.83825],[139.25113,35.83756],[139.24838,35.83757],[139.24681,35.83689],[139.24278,35.8366],[139.24123,35.84004],[139.23904,35.84052],[139.23702,35.84015],[139.23536,35.83805],[139.23423,35.83813],[139.23281,35.83675],[139.23127,35.83664],[139.23005,35.83691],[139.22804,35.83833],[139.22765,35.83912],[139.22455,35.8405],[139.22018,35.8413],[139.21933,35.84252],[139.21822,35.84274],[139.21584,35.84431],[139.21492,35.84578],[139.21369,35.84553],[139.21288,35.8459],[139.21265,35.84661],[139.20987,35.84618],[139.20761,35.84644],[139.20633,35.84591],[139.20494,35.84466],[139.2048,35.84303],[139.20314,35.8412],[139.19825,35.8411],[139.19581,35.84005],[139.19244,35.84027],[139.18928,35.84137],[139.18676,35.84292],[139.18416,35.84279],[139.18363,35.84357],[139.18183,35.84379],[139.18107,35.84477],[139.17544,35.8472],[139.17436,35.84831],[139.17111,35.84861],[139.16909,35.84998],[139.16617,35.84997],[139.16325,35.85097],[139.16215,35.85211],[139.1594,35.85707],[139.1533,35.85932],[139.14754,35.86271],[139.14176,35.86326],[139.13536,35.86539],[139.13189,35.86443],[139.1292,35.86556],[139.12742,35.86564],[139.12608,35.86504],[139.12182,35.86493],[139.11927,35.86429],[139.11577,35.86447],[139.11445,35.86537],[139.11173,35.86468],[139.10967,35.86571],[139.10698,35.86575],[139.10268,35.86658],[139.10137,35.86569],[139.09909,35.86867],[139.0945,35.86951],[139.09166,35.86903],[139.08923,35.87103],[139.08399,35.87343],[139.08254,35.87487],[139.07997,35.87532],[139.07776,35.87534],[139.07611,35.87483],[139.07224,35.8716],[139.07007,35.87158],[139.0662,35.8728],[139.06506,35.87273],[139.06163,35.87363],[139.05931,35.8749],[139.05797,35.87744],[139.05539,35.87748],[139.04984,35.87883],[139.04833,35.88121],[139.04729,35.8815],[139.04575,35.88343],[139.04444,35.88382],[139.04287,35.8856],[139.04035,35.88631],[139.03742,35.88922],[139.02933,35.89291],[139.02545,35.89553],[139.02401,35.89729],[139.02089,35.89716],[139.0188,35.89838],[139.01338,35.89826],[139.01032,35.89717],[139.00681,35.89364],[139.00666,35.88962],[139.00568,35.88824],[139.00289,35.88622],[139.00093,35.88401],[138.99588,35.88445],[138.99458,35.88326],[138.99327,35.88309],[138.98875,35.88115],[138.98556,35.88117],[138.98306,35.88299],[138.97893,35.88501],[138.97303,35.88212],[138.96784,35.88215],[138.9667,35.88064],[138.96666,35.87937],[138.9652,35.87779],[138.96229,35.87677],[138.96008,35.87678],[138.95697,35.87597],[138.95446,35.87491],[138.95424,35.87387],[138.94993,35.86949],[138.94909,35.86897],[138.94637,35.86868],[138.94514,35.86793],[138.94658,35.86447],[138.94489,35.86275],[138.9439,35.86086],[138.94287,35.86016],[138.94302,35.8572],[138.94394,35.85507],[138.94277,35.85376],[138.93751,35.85233],[138.93515,35.85102],[138.93218,35.85127],[138.93099,35.84991],[138.92663,35.84892],[138.92262,35.85069],[138.92115,35.85053],[138.92032,35.85122],[138.91764,35.85142],[138.91486,35.85254],[138.91312,35.85235],[138.9122,35.85291],[138.91095,35.85273],[138.90905,35.85068],[138.90498,35.84859],[138.90297,35.84845],[138.90125,35.84727],[138.8983,35.84621],[138.89693,35.84489],[138.89671,35.84345],[138.89517,35.8416],[138.89261,35.83978],[138.89204,35.83985],[138.89044,35.84223],[138.88878,35.84313],[138.88565,35.84713],[138.8818,35.84745],[138.87998,35.84687],[138.87769,35.84787],[138.87716,35.84911],[138.87422,35.85144],[138.87238,35.85484],[138.87121,35.85527],[138.86943,35.85725],[138.86657,35.85818],[138.86512,35.85925],[138.86244,35.85871],[138.86069,35.85767],[138.85894,35.85749],[138.8584,35.8583],[138.85778,35.85841],[138.85686,35.86005],[138.85705,35.86261],[138.85663,35.86462],[138.8559,35.86509],[138.85073,35.86581],[138.84983,35.86663],[138.84545,35.86739],[138.84471,35.86637],[138.84172,35.86491],[138.8381,35.8643],[138.83445,35.86228],[138.83243,35.86225],[138.83172,35.86291],[138.83075,35.86302],[138.83053,35.86473],[138.82783,35.86579],[138.82601,35.86529],[138.8245,35.86562],[138.82191,35.86459],[138.81937,35.8652],[138.81507,35.86297],[138.81469,35.86226],[138.8136,35.86237],[138.81018,35.86621],[138.8084,35.87002],[138.80585,35.86964],[138.80193,35.87043],[138.79697,35.87213],[138.79326,35.87499],[138.792,35.87545],[138.79179,35.87978],[138.79279,35.88193],[138.79194,35.88264],[138.79156,35.884],[138.79173,35.8868],[138.79062,35.89188],[138.78814,35.89388],[138.78198,35.89709],[138.78132,35.89888],[138.78021,35.89951],[138.77716,35.90042],[138.77548,35.90017],[138.77115,35.90055],[138.76567,35.89911],[138.75814,35.90248],[138.75651,35.90273],[138.75357,35.90287],[138.74911,35.90161],[138.73886,35.90589],[138.73739,35.9057],[138.73608,35.90431],[138.73464,35.90397],[138.73294,35.90473],[138.72945,35.90851],[138.72889,35.90973],[138.72926,35.9127],[138.73065,35.91488],[138.73013,35.91634],[138.72811,35.91783],[138.7295,35.91789],[138.73232,35.91947],[138.73378,35.92317],[138.73521,35.92378],[138.73612,35.92491],[138.73628,35.92638],[138.73763,35.92729],[138.73758,35.92804],[138.73851,35.92902],[138.73827,35.92984],[138.73917,35.93326],[138.73744,35.93628],[138.73925,35.93911],[138.73602,35.94142],[138.73473,35.94298],[138.73114,35.94515],[138.73143,35.94739],[138.73049,35.9492],[138.73047,35.9503],[138.72905,35.9513],[138.72818,35.95426],[138.72676,35.95671],[138.72538,35.95776],[138.72337,35.95804],[138.72104,35.95909],[138.71972,35.96119],[138.71948,35.96289],[138.71418,35.96552],[138.71136,35.97187],[138.71242,35.97485],[138.71189,35.97561],[138.71191,35.97917],[138.71269,35.98042],[138.71321,35.98402],[138.71255,35.98533],[138.71447,35.98672],[138.71448,35.9891],[138.71681,35.9929],[138.71954,35.99378],[138.72216,35.99385],[138.72279,35.99446],[138.72659,35.99477],[138.72776,35.99571],[138.72769,35.9965],[138.72992,35.9981],[138.73217,35.99833],[138.7357,36.00162],[138.73592,36.00317],[138.73737,36.0043],[138.73669,36.00647],[138.74022,36.00785],[138.74084,36.00863],[138.74214,36.00894],[138.74289,36.00986],[138.74377,36.0101],[138.74476,36.01368],[138.74706,36.01477],[138.74918,36.01672],[138.74849,36.01863],[138.74965,36.02033],[138.74941,36.02209],[138.75065,36.02381],[138.75066,36.02505],[138.7529,36.02659],[138.75358,36.02838],[138.75285,36.02909],[138.75295,36.0305],[138.75441,36.03453],[138.7598,36.03485],[138.76107,36.03582],[138.76418,36.03667],[138.76551,36.03764],[138.76906,36.0388],[138.77043,36.03826],[138.77355,36.03879],[138.77641,36.03714],[138.78056,36.0369],[138.78208,36.03408],[138.78667,36.03314],[138.78763,36.03184],[138.78787,36.03052],[138.79098,36.0294],[138.79188,36.02994],[138.79481,36.03031],[138.79587,36.03111],[138.79711,36.03102],[138.80089,36.03222],[138.80257,36.03354],[138.80477,36.03349],[138.80607,36.03412],[138.80868,36.03305],[138.81057,36.03352],[138.81358,36.03349],[138.8158,36.03543],[138.81813,36.03562],[138.8216,36.03674],[138.82321,36.03639],[138.82571,36.03746],[138.82914,36.03706],[138.82839,36.0373],[138.82912,36.04162],[138.8318,36.04478],[138.83248,36.04672],[138.83202,36.04754],[138.83382,36.04842],[138.83463,36.05018],[138.8361,36.04959],[138.83761,36.04995],[138.83897,36.0512],[138.84091,36.05451],[138.84294,36.05596],[138.84386,36.05949],[138.84526,36.06112],[138.84499,36.06231],[138.84604,36.06663],[138.8489,36.06739],[138.85076,36.06926],[138.85358,36.06913],[138.85471,36.06851],[138.85918,36.06992],[138.86175,36.07169],[138.86207,36.07321],[138.86399,36.07489],[138.86416,36.07683],[138.86481,36.07735],[138.86741,36.078],[138.868,36.07879],[138.87184,36.07939],[138.87342,36.08083],[138.87778,36.08258],[138.88159,36.08353],[138.88485,36.08354],[138.88671,36.08418],[138.89152,36.08756],[138.89238,36.08783],[138.89484,36.08752],[138.89747,36.08971],[138.89786,36.09065],[138.90089,36.09069],[138.90246,36.09162],[138.90777,36.09205],[138.91074,36.09075],[138.9135,36.09185],[138.91418,36.09271],[138.91631,36.09375],[138.92094,36.09143],[138.92483,36.09076],[138.92585,36.08933],[138.92837,36.0892],[138.93149,36.0881],[138.93419,36.09045],[138.93727,36.09183],[138.9381,36.09289],[138.94507,36.0946],[138.94638,36.09656],[138.94851,36.09845],[138.95033,36.0994],[138.95029,36.10084],[138.95112,36.10268],[138.95437,36.10462],[138.95499,36.1056],[138.95655,36.1057],[138.95688,36.10674],[138.95791,36.10764],[138.95801,36.10989],[138.95626,36.11215],[138.9572,36.11787],[138.95819,36.11874],[138.95866,36.12059],[138.95845,36.12409],[138.95989,36.12407],[138.96219,36.12542],[138.96424,36.1259],[138.96695,36.12431],[138.96973,36.12445],[138.97118,36.12284],[138.97378,36.12131],[138.97409,36.1196],[138.9776,36.11643],[138.97905,36.116],[138.98177,36.11708],[138.98533,36.11549],[138.98717,36.11747],[138.9893,36.11792],[138.9911,36.12182],[138.99354,36.12488],[138.99683,36.12567],[139.00139,36.12503],[139.00643,36.12924],[139.00656,36.13023],[139.00375,36.13213],[139.00486,36.13341],[139.01017,36.132],[139.01541,36.13411],[139.01673,36.13229],[139.01986,36.13105],[139.02158,36.13164],[139.02376,36.1339],[139.02471,36.1341],[139.02658,36.13297],[139.02575,36.13083],[139.02605,36.13015],[139.02853,36.12996],[139.03229,36.12719],[139.03683,36.12619],[139.04186,36.12794],[139.04256,36.12874],[139.04321,36.1312],[139.04124,36.13441],[139.04103,36.13598],[139.04171,36.1379],[139.0411,36.13956],[139.04272,36.14803],[139.04677,36.14901],[139.0474,36.14997],[139.04718,36.15156],[139.04818,36.15229],[139.05603,36.15259],[139.06056,36.15226],[139.06216,36.15294],[139.06142,36.15548],[139.06214,36.15725],[139.06376,36.15908],[139.06208,36.16251],[139.05833,36.16474],[139.05836,36.16518],[139.05938,36.16565],[139.05941,36.16646],[139.05828,36.16715],[139.05835,36.16867],[139.05747,36.16982],[139.0578,36.1734],[139.05639,36.18052],[139.0567,36.18241],[139.05768,36.18372],[139.06305,36.18581],[139.06453,36.18722],[139.06342,36.19629],[139.06532,36.19869],[139.07358,36.2053],[139.08074,36.21359],[139.09079,36.23114],[139.10747,36.25262],[139.1112,36.2585],[139.1099,36.25892],[139.10826,36.26032],[139.1078,36.26171],[139.111,36.26419],[139.11333,36.26678],[139.11826,36.26917],[139.12692,36.27841],[139.12966,36.2834],[139.13031,36.28319],[139.13142,36.28116],[139.1342,36.27891],[139.13566,36.27844],[139.1503,36.27859],[139.15848,36.2778],[139.1639,36.27891],[139.1719,36.2734],[139.18247,36.2682],[139.19539,36.26319],[139.198,36.26225],[139.20151,36.26264],[139.20361,36.26241],[139.20524,36.26315],[139.20825,36.26246],[139.2101,36.26131],[139.21085,36.26148],[139.21197,36.26017],[139.21163,36.25625],[139.224,36.2583],[139.23118,36.25248],[139.23349,36.24891],[139.2353,36.24756],[139.23747,36.2462],[139.24407,36.24443],[139.25422,36.24583],[139.25918,36.24449],[139.26169,36.2427],[139.26701,36.24262],[139.26736,36.24462],[139.26697,36.25056],[139.27769,36.24797],[139.28684,36.24501],[139.29848,36.24328],[139.29703,36.24187],[139.30144,36.23979],[139.30838,36.23763],[139.31515,36.23661],[139.32227,36.23659],[139.32797,36.23736],[139.32798,36.24054],[139.33307,36.24278],[139.33657,36.24303],[139.34025,36.24386],[139.33948,36.24599],[139.34343,36.247],[139.3452,36.24823],[139.34686,36.25147],[139.34629,36.25199],[139.3474,36.25371],[139.351,36.25437],[139.35384,36.25148],[139.35798,36.2533],[139.35929,36.25323],[139.36239,36.25149],[139.36782,36.24681],[139.37667,36.2445],[139.37934,36.24118],[139.3902,36.23088],[139.39007,36.22921],[139.39327,36.22804],[139.39343,36.22762],[139.40675,36.22293],[139.40769,36.22265],[139.4087,36.22342],[139.41901,36.21661],[139.41936,36.21129],[139.41983,36.21095],[139.42397,36.21087],[139.42885,36.20856],[139.44453,36.1966],[139.45486,36.19119],[139.46239,36.18951],[139.46739,36.18913],[139.47443,36.18946],[139.50278,36.19355],[139.51078,36.19307],[139.51917,36.19134],[139.52822,36.1915],[139.53522,36.19294],[139.55423,36.20071],[139.56754,36.20247],[139.57193,36.20366],[139.5754,36.20508],[139.583,36.20924],[139.58556,36.21018],[139.58777,36.21037],[139.59436,36.20889],[139.60106,36.20547],[139.60664,36.20077],[139.61045,36.19621],[139.61514,36.19204],[139.62489,36.18657],[139.6259,36.19241],[139.62872,36.19508],[139.63759,36.19725],[139.64094,36.19725],[139.64795,36.19608],[139.649,36.19618],[139.65098,36.19751],[139.65151,36.19919],[139.65002,36.20278],[139.64914,36.2108],[139.65225,36.21281],[139.6547,36.21323],[139.65885,36.2148],[139.66042,36.21473],[139.6639,36.21191],[139.66364,36.21095],[139.6612,36.20832],[139.66262,36.20712],[139.66766,36.20673],[139.66906,36.20717],[139.67216,36.20921],[139.67417,36.20907],[139.67491,36.20829],[139.67555,36.2042],[139.67691,36.20193],[139.68028,36.20052],[139.68232,36.20098],[139.68458,36.20355],[139.68627,36.20362],[139.68794,36.19968],[139.68772,36.19709],[139.68837,36.19539],[139.69365,36.19168],[139.69425,36.19076],[139.69252,36.18607],[139.69089,36.17526],[139.69184,36.1702],[139.69418,36.16593],[139.69539,36.158],[139.698,36.15408],[139.69856,36.15185],[139.70137,36.14706],[139.70543,36.14253],[139.71013,36.13594],[139.71075,36.13295],[139.71358,36.12625],[139.72205,36.11816],[139.72638,36.11252],[139.72831,36.09014],[139.72983,36.08779],[139.73138,36.08664],[139.73366,36.08633],[139.74229,36.08716],[139.74676,36.08708],[139.75779,36.0821],[139.76576,36.08043],[139.7676,36.08046],[139.77033,36.08122],[139.77186,36.08224],[139.77257,36.08376],[139.77209,36.08652],[139.77245,36.08798],[139.77349,36.08918],[139.77622,36.09077],[139.77726,36.0876],[139.77987,36.08276],[139.78022,36.07857],[139.78219,36.07523],[139.78276,36.07022],[139.7876,36.06489],[139.79136,36.05814],[139.7947,36.05595],[139.79767,36.05233],[139.80142,36.04941],[139.80459,36.04464],[139.81467,36.03771],[139.81728,36.0325],[139.81744,36.03011],[139.81399,36.02502],[139.81342,36.02343],[139.81697,36.0032],[139.81662,36.00149],[139.81445,35.99886],[139.81419,35.99733],[139.81541,35.99557],[139.81793,35.99366],[139.82665,35.98343],[139.82659,35.97993],[139.82511,35.97487],[139.82566,35.97276],[139.82723,35.97136],[139.83207,35.96979],[139.8336,35.96871],[139.83524,35.96487],[139.83501,35.96025],[139.83777,35.95391],[139.84646,35.94099],[139.84929,35.93835],[139.8613,35.93224],[139.86539,35.92834],[139.86852,35.92361],[139.87175,35.91595],[139.8765,35.91104],[139.88023,35.90461],[139.88529,35.89923],[139.89035,35.89169],[139.89305,35.88542],[139.89446,35.87755],[139.897,35.8728],[139.90034,35.86417],[139.89997,35.86242],[139.89752,35.85815],[139.89614,35.85293],[139.8932,35.84971],[139.89004,35.844],[139.88947,35.84109],[139.88984,35.83637],[139.88852,35.83217],[139.8889,35.82739],[139.88804,35.82321],[139.89117,35.81987],[139.89166,35.81833],[139.89037,35.81086],[139.88882,35.80711],[139.89068,35.80155],[139.8908,35.79978],[139.88993,35.79776],[139.88852,35.79645],[139.88828,35.79458],[139.89083,35.79018],[139.89378,35.78275],[139.88724,35.78402],[139.87725,35.78117],[139.87454,35.78178],[139.87204,35.78504],[139.87176,35.78475],[139.87119,35.78663],[139.87155,35.78798],[139.87326,35.79039],[139.87596,35.79219],[139.87658,35.7932],[139.87569,35.79553],[139.87339,35.79717],[139.86872,35.79701],[139.86385,35.79483],[139.85954,35.79523],[139.85737,35.79177],[139.85649,35.79096],[139.85529,35.79085],[139.85356,35.79156],[139.84721,35.79583],[139.84339,35.7998],[139.83801,35.80081],[139.8369,35.80046],[139.83277,35.79568],[139.83085,35.79463],[139.82605,35.79336],[139.82444,35.79495],[139.82277,35.79546],[139.82121,35.79675],[139.81968,35.79898],[139.82075,35.80554],[139.82292,35.80941],[139.82465,35.81065],[139.82493,35.81146],[139.82369,35.81388],[139.82106,35.81508],[139.82011,35.8128],[139.8211,35.81144],[139.82053,35.81123],[139.81965,35.81178],[139.81861,35.81106],[139.8186,35.81177],[139.81793,35.81042],[139.8147,35.80871],[139.81239,35.80826],[139.80471,35.80879],[139.8023,35.80855],[139.79884,35.80619],[139.794,35.8052],[139.79178,35.80542],[139.78723,35.80688],[139.78114,35.80723],[139.77851,35.80894],[139.77745,35.81066],[139.77176,35.81687],[139.77087,35.81738],[139.7681,35.81771],[139.76588,35.81726],[139.76515,35.81644],[139.76578,35.81574],[139.76127,35.81289],[139.75759,35.81197],[139.75561,35.81271],[139.7552,35.81073],[139.75446,35.81087],[139.75384,35.81047],[139.75191,35.81094],[139.75077,35.81017],[139.75045,35.80929],[139.75083,35.80891],[139.7503,35.80862],[139.75093,35.80789],[139.7505,35.80752],[139.75066,35.80667],[139.7551,35.80337],[139.75628,35.80175],[139.75981,35.79893],[139.76077,35.79741],[139.75997,35.79434],[139.7556,35.79003],[139.75626,35.78864],[139.7554,35.78719],[139.75003,35.78594],[139.74677,35.78685],[139.74582,35.78328],[139.74262,35.7817],[139.73805,35.78022],[139.73854,35.7874],[139.73533,35.78957],[139.73387,35.79005],[139.72659,35.78749],[139.72446,35.78727],[139.72315,35.78839],[139.72224,35.79073],[139.72074,35.79143],[139.71832,35.79188],[139.70975,35.79195],[139.7073,35.79253],[139.70526,35.79341],[139.69686,35.7989],[139.69316,35.8004],[139.68783,35.80084],[139.67838,35.79882],[139.67383,35.79917],[139.67106,35.8],[139.66737,35.80045],[139.65336,35.80023],[139.64787,35.79747],[139.64369,35.79822],[139.64086,35.79794],[139.63941,35.79285],[139.63765,35.79155],[139.63792,35.7912],[139.63611,35.79045],[139.63423,35.79034],[139.63372,35.7895],[139.63273,35.78929],[139.63157,35.7882],[139.63213,35.78744],[139.63169,35.78634],[139.63035,35.78536],[139.62907,35.78574],[139.62787,35.78466],[139.62774,35.78313],[139.62453,35.78081],[139.62421,35.77433],[139.6256,35.77302],[139.62408,35.77125],[139.62299,35.76687],[139.61773,35.76665],[139.61758,35.76773],[139.61682,35.76844],[139.61723,35.77035],[139.61542,35.77087],[139.61248,35.77043],[139.61171,35.76938],[139.61127,35.77107],[139.6099,35.77032],[139.60875,35.76884],[139.60714,35.76938],[139.60636,35.77095],[139.60429,35.76997],[139.60286,35.77096],[139.59821,35.76914],[139.59768,35.76993],[139.59835,35.77017],[139.59739,35.77098],[139.59844,35.77214],[139.60268,35.77436],[139.60398,35.77422],[139.60438,35.77502],[139.59694,35.77641],[139.5972,35.77837],[139.59414,35.7787],[139.59341,35.77719],[139.58876,35.77853],[139.58668,35.77528],[139.58398,35.77483],[139.58377,35.77285],[139.58186,35.77245],[139.58224,35.77121],[139.581,35.77112],[139.58065,35.77179],[139.58068,35.77109],[139.57817,35.77085],[139.57807,35.76947],[139.57689,35.76807],[139.57434,35.76819],[139.57459,35.76623],[139.57239,35.76645],[139.57243,35.76582],[139.57004,35.76559],[139.57108,35.76334],[139.56973,35.76301],[139.56931,35.76363],[139.56824,35.76351],[139.56837,35.76282],[139.56679,35.76282],[139.56678,35.76196],[139.56561,35.76188],[139.56503,35.76196],[139.56474,35.76282],[139.56358,35.76284],[139.56268,35.76139],[139.56181,35.76107],[139.56183,35.7596],[139.55987,35.7592],[139.55778,35.75958],[139.5572,35.759],[139.55615,35.75888],[139.55577,35.75775],[139.55539,35.75775],[139.55525,35.75574],[139.55204,35.75596],[139.55151,35.75525],[139.55,35.75526],[139.55006,35.75438],[139.54716,35.75338],[139.54678,35.75509],[139.54483,35.75462],[139.54435,35.75548],[139.54512,35.75758],[139.54698,35.7603],[139.54669,35.76269],[139.54714,35.76275],[139.54764,35.76617],[139.54695,35.76955],[139.54765,35.77108],[139.54766,35.77423],[139.54407,35.77331],[139.54167,35.772],[139.53279,35.76944],[139.5303,35.76835],[139.52727,35.76781],[139.52705,35.76826],[139.52138,35.76757],[139.51637,35.76557],[139.52282,35.77189],[139.52595,35.77214],[139.52635,35.77162],[139.52845,35.77304],[139.52808,35.77344],[139.53075,35.77323],[139.53337,35.77378],[139.53595,35.77518],[139.53648,35.77563],[139.5362,35.77596],[139.53749,35.77688],[139.53987,35.77778],[139.53977,35.77834],[139.54298,35.77981],[139.54374,35.78208],[139.54379,35.78819],[139.54127,35.78958],[139.54074,35.78949],[139.54077,35.78986],[139.53758,35.79076],[139.53733,35.7915],[139.53866,35.79221],[139.54024,35.79405],[139.54479,35.79676],[139.54622,35.79923],[139.5472,35.80266],[139.54667,35.80369],[139.54526,35.80458],[139.54429,35.80664],[139.5417,35.80731],[139.53686,35.80394],[139.53177,35.79684],[139.52926,35.79413],[139.52769,35.7929],[139.52594,35.79251],[139.52552,35.79188],[139.52311,35.79171],[139.52372,35.79033],[139.52118,35.78846],[139.51684,35.78895],[139.51404,35.7885],[139.51256,35.78536],[139.50846,35.78466],[139.5067,35.78277],[139.5045,35.78315],[139.49938,35.78217],[139.49803,35.78121],[139.49679,35.7787],[139.49576,35.78167],[139.49349,35.7817],[139.49375,35.77958],[139.49147,35.7803],[139.49106,35.78001],[139.49081,35.78061],[139.49007,35.78083],[139.48974,35.78046],[139.49008,35.77936],[139.48958,35.77915],[139.48896,35.77947],[139.48961,35.77961],[139.4897,35.78008],[139.48858,35.77939],[139.48549,35.78071],[139.48277,35.78069],[139.48252,35.78109],[139.48223,35.78066],[139.4795,35.77994],[139.47842,35.77836],[139.47535,35.77685],[139.47564,35.77617],[139.47631,35.77635],[139.47694,35.77574],[139.47671,35.77533],[139.47397,35.77568],[139.47407,35.77466],[139.47226,35.77433],[139.47116,35.7734],[139.46985,35.77421],[139.46467,35.77372],[139.46332,35.77288],[139.4625,35.77346],[139.46134,35.77343],[139.46079,35.77257],[139.4592,35.77216],[139.45866,35.76986],[139.45806,35.76931],[139.45504,35.7696],[139.4538,35.76935],[139.45319,35.7685],[139.45102,35.76933],[139.44998,35.76873],[139.4465,35.76809],[139.44497,35.76666],[139.44088,35.76693],[139.44,35.76761],[139.43963,35.76916],[139.43866,35.76959],[139.43796,35.76908],[139.43848,35.76854],[139.43827,35.76796],[139.43641,35.76721],[139.43322,35.76735],[139.43181,35.76635],[139.42917,35.76697],[139.42762,35.76645],[139.42495,35.76726],[139.42335,35.76719],[139.42221,35.7678],[139.41956,35.7659],[139.41603,35.76623],[139.41544,35.76693],[139.41368,35.76717],[139.41286,35.76809],[139.41198,35.76794],[139.40951,35.76869],[139.40734,35.76847],[139.40459,35.76914],[139.4031,35.76843],[139.40151,35.76855],[139.40047,35.76803],[139.39824,35.7643],[139.39591,35.76424],[139.39215,35.76329],[139.39046,35.764],[139.39182,35.76683],[139.39166,35.76741],[139.3896,35.76714],[139.38507,35.76523],[139.38022,35.76637],[139.37895,35.77089],[139.38001,35.77199],[139.38034,35.77331],[139.38148,35.77427],[139.38146,35.77726]],[[138.83025,36.03655],[138.83016,36.0366],[138.83007,36.03663],[138.82999,36.03665],[138.82979,36.03669],[138.83025,36.03655]],[[138.83118,36.03572],[138.83112,36.03582],[138.83105,36.03589],[138.83098,36.03594],[138.83067,36.03614],[138.83118,36.03572]],[[138.8313,36.0355],[138.83142,36.03528],[138.8315,36.03513],[138.83158,36.03507],[138.83118,36.03572],[138.8313,36.0355]],[[138.83273,36.0349],[138.83184,36.03501],[138.833,36.03478],[138.83273,36.0349]],[[138.83319,36.03467],[138.83334,36.03461],[138.833,36.03478],[138.83319,36.03467]],[[138.83468,36.03413],[138.83474,36.03409],[138.83452,36.03437],[138.83431,36.03446],[138.83411,36.03449],[138.83383,36.0345],[138.83365,36.03453],[138.83468,36.03413]],[[138.83592,36.03415],[138.83574,36.03418],[138.83557,36.03422],[138.83535,36.03426],[138.83518,36.03421],[138.83501,36.03412],[138.83481,36.03408],[138.83592,36.03415]],[[138.83784,36.03372],[138.83799,36.03365],[138.83763,36.03392],[138.83751,36.03399],[138.8373,36.03409],[138.83691,36.03423],[138.83784,36.03372]],[[138.83902,36.03327],[138.83913,36.03303],[138.83925,36.03285],[138.83951,36.03243],[138.83971,36.03211],[138.8403,36.03148],[138.83887,36.03365],[138.83878,36.0337],[138.8384,36.03368],[138.83902,36.03327]],[[138.84042,36.0314],[138.84055,36.03132],[138.84074,36.03125],[138.84091,36.03121],[138.84108,36.03117],[138.8403,36.03148],[138.84042,36.0314]],[[138.84168,36.03068],[138.84167,36.02866],[138.84179,36.03048],[138.84168,36.03068]],[[138.84192,36.02633],[138.842,36.0265],[138.84177,36.02616],[138.84192,36.02633]],[[138.84151,36.02565],[138.84151,36.02544],[138.84155,36.02529],[138.84151,36.02565]],[[138.84135,36.02431],[138.84129,36.02411],[138.84127,36.02393],[138.84126,36.02379],[138.84127,36.02365],[138.8416,36.02495],[138.8416,36.02512],[138.84156,36.02526],[138.84135,36.02431]],[[138.83872,36.02036],[138.83881,36.0206],[138.83866,36.02029],[138.83872,36.02036]],[[138.83844,36.01981],[138.83857,36.02017],[138.83846,36.0199],[138.83844,36.01981]],[[138.83846,36.01739],[138.83838,36.0177],[138.83829,36.018],[138.83825,36.01807],[138.83846,36.01739]],[[138.83884,36.0158],[138.83884,36.01607],[138.83883,36.01626],[138.83875,36.01643],[138.83872,36.01653],[138.83871,36.01655],[138.83867,36.01667],[138.83884,36.0158]],[[138.83867,36.01463],[138.83865,36.01437],[138.83862,36.01406],[138.83862,36.01391],[138.83862,36.01377],[138.83862,36.01371],[138.83886,36.01564],[138.83867,36.01463]],[[138.84011,36.01209],[138.84009,36.01218],[138.84003,36.01226],[138.83995,36.01229],[138.84011,36.01209]],[[138.84063,36.01114],[138.84063,36.01131],[138.84019,36.01168],[138.84063,36.01114]],[[138.84046,36.01061],[138.84049,36.01068],[138.84057,36.01092],[138.8399,36.00949],[138.84046,36.01061]],[[138.83941,36.00794],[138.83943,36.00801],[138.83926,36.00771],[138.83941,36.00794]],[[138.83915,36.00736],[138.8392,36.00731],[138.83987,36.00703],[138.83915,36.00736]],[[138.8409,36.00633],[138.84073,36.00659],[138.84091,36.00606],[138.8409,36.00633]],[[138.84072,36.00578],[138.84079,36.00585],[138.84091,36.00606],[138.84072,36.00578]],[[138.84057,36.00429],[138.84058,36.00446],[138.84047,36.00541],[138.84057,36.00429]],[[138.84043,36.00366],[138.8405,36.00385],[138.84057,36.00429],[138.84043,36.00366]],[[138.84024,36.00273],[138.84028,36.00282],[138.84029,36.00287],[138.8403,36.00294],[138.84029,36.00309],[138.84024,36.00273]],[[138.84038,36.00318],[138.84041,36.00347],[138.84029,36.00309],[138.84038,36.00318]],[[138.83978,36.00071],[138.83994,36.00069],[138.84037,36.00066],[138.83958,36.00075],[138.83978,36.00071]],[[138.84202,36.00003],[138.84182,36.00024],[138.84173,36.00028],[138.84167,36.00031],[138.84145,36.00043],[138.84107,36.00056],[138.84202,36.00003]]],[[[139.26358,36.24388],[139.26172,36.24428],[139.26223,36.24537],[139.26289,36.2451],[139.26272,36.24473],[139.2637,36.24455],[139.26358,36.24388]]]]}}]}